<?xml version="1.0" encoding="utf-8"?>
<gpx creator="Garmin Explore App" version="1.1" xmlns:adv="http://www.garmin.com/xmlschemas/AdventuresExtensions/v1" xmlns:gpxtpx="http://www.garmin.com/xmlschemas/TrackPointExtension/v1" xmlns:gpxtrx="http://www.garmin.com/xmlschemas/GpxExtensions/v3" xmlns:gpxx="http://www.garmin.com/xmlschemas/GpxExtensions/v3" xmlns:trp="http://www.garmin.com/xmlschemas/TripExtensions/v1" xmlns:wptx1="http://www.garmin.com/xmlschemas/WaypointExtension/v1" xmlns:xsi="http://www.w3.org/2001/XMLSchema-instance" xmlns="http://www.topografix.com/GPX/1/1" xsi:schemaLocation="http://www.topografix.com/GPX/1/1 http://www.topografix.com/GPX/1/1/gpx.xsd http://www.garmin.com/xmlschemas/WaypointExtension/v1 http://www8.garmin.com/xmlschemas/WaypointExtensionv1.xsd http://www.garmin.com/xmlschemas/TrackPointExtension/v1 http://www.garmin.com/xmlschemas/TrackPointExtensionv1.xsd http://www.garmin.com/xmlschemas/GpxExtensions/v3 http://www8.garmin.com/xmlschemas/GpxExtensionsv3.xsd http://www.garmin.com/xmlschemas/ActivityExtension/v1 http://www8.garmin.com/xmlschemas/ActivityExtensionv1.xsd http://www.garmin.com/xmlschemas/AdventuresExtensions/v1 http://www8.garmin.com/xmlschemas/AdventuresExtensionv1.xsd http://www.garmin.com/xmlschemas/PressureExtension/v1 http://www.garmin.com/xmlschemas/PressureExtensionv1.xsd">
	<metadata>
		<name>2025-08-12 09:50:28</name>
		<link href="http://www.garmin.com">
			<text>Garmin International</text>
		</link>
		<time>2025-08-12T17:57:16Z</time>
	</metadata>
	<trk>
		<name>2025-08-12 09:50:28</name>
		<extensions>
			<gpxx:TrackExtension>
				<gpxx:DisplayColor>DarkCyan</gpxx:DisplayColor>
			</gpxx:TrackExtension>
		</extensions>
		<trkseg>
			<trkpt lat="53.21287488937378" lon="6.560722589492798">
				<ele>9.999999562023526e+24</ele>
				<time>2025-08-12T07:50:28Z</time>
			</trkpt>
			<trkpt lat="53.212841749191284" lon="6.560757398605347">
				<ele>-2.0</ele>
				<time>2025-08-12T07:50:33Z</time>
			</trkpt>
			<trkpt lat="53.21290183067322" lon="6.560715675354004">
				<ele>2.0</ele>
				<time>2025-08-12T07:50:44Z</time>
			</trkpt>
			<trkpt lat="53.21285104751587" lon="6.560468554496765">
				<ele>5.79998779296875</ele>
				<time>2025-08-12T07:50:56Z</time>
			</trkpt>
			<trkpt lat="53.21228289604187" lon="6.5688560009002686">
				<ele>10.79998779296875</ele>
				<time>2025-08-12T08:00:33Z</time>
			</trkpt>
			<trkpt lat="53.212287187576294" lon="6.568954706192017">
				<ele>-10.399993896484375</ele>
				<time>2025-08-12T08:10:09Z</time>
			</trkpt>
			<trkpt lat="53.2122905254364" lon="6.569019436836243">
				<ele>-6.20001220703125</ele>
				<time>2025-08-12T08:10:22Z</time>
			</trkpt>
			<trkpt lat="53.2122905254364" lon="6.569019436836243">
				<ele>-8.0</ele>
				<time>2025-08-12T08:10:33Z</time>
			</trkpt>
			<trkpt lat="53.216025710105896" lon="6.577019453048706">
				<ele>-8.0</ele>
				<time>2025-08-12T08:10:34Z</time>
			</trkpt>
			<trkpt lat="53.216024518013" lon="6.5770955085754395">
				<ele>-2.0</ele>
				<time>2025-08-12T08:20:10Z</time>
			</trkpt>
			<trkpt lat="53.21614193916321" lon="6.577309727668762">
				<ele>-5.20001220703125</ele>
				<time>2025-08-12T08:20:12Z</time>
			</trkpt>
			<trkpt lat="53.21622431278229" lon="6.577487587928772">
				<ele>-5.399993896484375</ele>
				<time>2025-08-12T08:20:19Z</time>
			</trkpt>
			<trkpt lat="53.216291546821594" lon="6.577686905860901">
				<ele>-4.0</ele>
				<time>2025-08-12T08:20:26Z</time>
			</trkpt>
			<trkpt lat="53.21629273891449" lon="6.577712893486023">
				<ele>-3.600006103515625</ele>
				<time>2025-08-12T08:20:33Z</time>
			</trkpt>
			<trkpt lat="53.21950030326843" lon="6.588191509246826">
				<ele>-3.600006103515625</ele>
				<time>2025-08-12T08:20:35Z</time>
			</trkpt>
			<trkpt lat="53.21940100193024" lon="6.588261723518372">
				<ele>8.0</ele>
				<time>2025-08-12T08:30:08Z</time>
			</trkpt>
			<trkpt lat="53.21945679187775" lon="6.5884058475494385">
				<ele>-7.79998779296875</ele>
				<time>2025-08-12T08:30:11Z</time>
			</trkpt>
			<trkpt lat="53.21950089931488" lon="6.588557243347168">
				<ele>-9.0</ele>
				<time>2025-08-12T08:30:19Z</time>
			</trkpt>
			<trkpt lat="53.21952748298645" lon="6.5886311531066895">
				<ele>-6.79998779296875</ele>
				<time>2025-08-12T08:30:28Z</time>
			</trkpt>
			<trkpt lat="53.221165895462036" lon="6.593864917755127">
				<ele>-6.0</ele>
				<time>2025-08-12T08:30:33Z</time>
			</trkpt>
			<trkpt lat="53.221208572387695" lon="6.5940574407577515">
				<ele>7.0</ele>
				<time>2025-08-12T08:34:08Z</time>
			</trkpt>
			<trkpt lat="53.22130036354065" lon="6.594305634498596">
				<ele>-1.0</ele>
				<time>2025-08-12T08:34:13Z</time>
			</trkpt>
			<trkpt lat="53.22138011455536" lon="6.594626784324646">
				<ele>-2.0</ele>
				<time>2025-08-12T08:34:20Z</time>
			</trkpt>
			<trkpt lat="53.22458803653717" lon="6.60709547996521">
				<ele>-5.79998779296875</ele>
				<time>2025-08-12T08:34:29Z</time>
			</trkpt>
			<trkpt lat="53.22474753856659" lon="6.606878399848938">
				<ele>-34.79998779296875</ele>
				<time>2025-08-12T08:40:07Z</time>
			</trkpt>
			<trkpt lat="53.22482752799988" lon="6.606873989105225">
				<ele>-8.20001220703125</ele>
				<time>2025-08-12T08:40:08Z</time>
			</trkpt>
			<trkpt lat="53.224910855293274" lon="6.607172608375549">
				<ele>-9.0</ele>
				<time>2025-08-12T08:40:12Z</time>
			</trkpt>
			<trkpt lat="53.22499477863312" lon="6.6074676513671875">
				<ele>-4.399993896484375</ele>
				<time>2025-08-12T08:40:18Z</time>
			</trkpt>
			<trkpt lat="53.22507452964783" lon="6.607756018638611">
				<ele>-4.399993896484375</ele>
				<time>2025-08-12T08:40:26Z</time>
			</trkpt>
			<trkpt lat="53.228588581085205" lon="6.619688272476196">
				<ele>-5.79998779296875</ele>
				<time>2025-08-12T08:40:33Z</time>
			</trkpt>
			<trkpt lat="53.228485465049744" lon="6.619902014732361">
				<ele>34.5999755859375</ele>
				<time>2025-08-12T08:50:07Z</time>
			</trkpt>
			<trkpt lat="53.22858262062073" lon="6.620258927345276">
				<ele>-2.0</ele>
				<time>2025-08-12T08:50:16Z</time>
			</trkpt>
			<trkpt lat="53.22866463661194" lon="6.620560526847839">
				<ele>-2.79998779296875</ele>
				<time>2025-08-12T08:50:25Z</time>
			</trkpt>
			<trkpt lat="53.22867274284363" lon="6.620604515075684">
				<ele>-3.0</ele>
				<time>2025-08-12T08:50:33Z</time>
			</trkpt>
			<trkpt lat="53.23481321334839" lon="6.6425862312316895">
				<ele>-3.600006103515625</ele>
				<time>2025-08-12T08:50:33Z</time>
			</trkpt>
			<trkpt lat="53.234809041023254" lon="6.642865180969238">
				<ele>3.79998779296875</ele>
				<time>2025-08-12T09:00:07Z</time>
			</trkpt>
			<trkpt lat="53.234866976737976" lon="6.643105983734131">
				<ele>-5.399993896484375</ele>
				<time>2025-08-12T09:00:11Z</time>
			</trkpt>
			<trkpt lat="53.234946489334106" lon="6.643402814865112">
				<ele>-5.399993896484375</ele>
				<time>2025-08-12T09:00:18Z</time>
			</trkpt>
			<trkpt lat="53.23501229286194" lon="6.643715023994446">
				<ele>-7.0</ele>
				<time>2025-08-12T09:00:26Z</time>
			</trkpt>
			<trkpt lat="53.23502576351166" lon="6.643757581710815">
				<ele>-7.399993896484375</ele>
				<time>2025-08-12T09:00:33Z</time>
			</trkpt>
			<trkpt lat="53.2429279088974" lon="6.663174271583557">
				<ele>-7.399993896484375</ele>
				<time>2025-08-12T09:00:35Z</time>
			</trkpt>
			<trkpt lat="53.24290227890015" lon="6.663323879241943">
				<ele>-7.600006103515625</ele>
				<time>2025-08-12T09:10:08Z</time>
			</trkpt>
			<trkpt lat="53.243075013160706" lon="6.663622498512268">
				<ele>-10.600006103515625</ele>
				<time>2025-08-12T09:10:13Z</time>
			</trkpt>
			<trkpt lat="53.24317502975464" lon="6.663875579833984">
				<ele>-7.20001220703125</ele>
				<time>2025-08-12T09:10:22Z</time>
			</trkpt>
			<trkpt lat="53.24325740337372" lon="6.664029121398926">
				<ele>-5.20001220703125</ele>
				<time>2025-08-12T09:10:29Z</time>
			</trkpt>
			<trkpt lat="53.25091636180878" lon="6.684799671173096">
				<ele>-4.399993896484375</ele>
				<time>2025-08-12T09:10:33Z</time>
			</trkpt>
			<trkpt lat="53.25091636180878" lon="6.684799671173096">
				<ele>-1.79998779296875</ele>
				<time>2025-08-12T09:20:33Z</time>
			</trkpt>
			<trkpt lat="53.25089871883392" lon="6.684867739677429">
				<ele>-1.79998779296875</ele>
				<time>2025-08-12T09:20:34Z</time>
			</trkpt>
			<trkpt lat="53.257952094078064" lon="6.704411864280701">
				<ele>-8.600006103515625</ele>
				<time>2025-08-12T09:20:35Z</time>
			</trkpt>
			<trkpt lat="53.257983446121216" lon="6.704512715339661">
				<ele>-7.20001220703125</ele>
				<time>2025-08-12T09:30:11Z</time>
			</trkpt>
			<trkpt lat="53.2580760717392" lon="6.70478355884552">
				<ele>-9.79998779296875</ele>
				<time>2025-08-12T09:30:14Z</time>
			</trkpt>
			<trkpt lat="53.25818383693695" lon="6.705019235610962">
				<ele>-7.20001220703125</ele>
				<time>2025-08-12T09:30:21Z</time>
			</trkpt>
			<trkpt lat="53.258259654045105" lon="6.7052271366119385">
				<ele>-6.399993896484375</ele>
				<time>2025-08-12T09:30:28Z</time>
			</trkpt>
			<trkpt lat="53.258259654045105" lon="6.7052271366119385">
				<ele>-7.0</ele>
				<time>2025-08-12T09:30:33Z</time>
			</trkpt>
			<trkpt lat="53.26552760601044" lon="6.724684119224548">
				<ele>-7.0</ele>
				<time>2025-08-12T09:30:34Z</time>
			</trkpt>
			<trkpt lat="53.265689849853516" lon="6.7246997356414795">
				<ele>19.0</ele>
				<time>2025-08-12T09:40:11Z</time>
			</trkpt>
			<trkpt lat="53.265820384025574" lon="6.724947810173035">
				<ele>2.20001220703125</ele>
				<time>2025-08-12T09:40:16Z</time>
			</trkpt>
			<trkpt lat="53.26586127281189" lon="6.725074887275696">
				<ele>0.399993896484375</ele>
				<time>2025-08-12T09:40:23Z</time>
			</trkpt>
			<trkpt lat="53.26593577861786" lon="6.725234389305115">
				<ele>-5.600006103515625</ele>
				<time>2025-08-12T09:40:29Z</time>
			</trkpt>
			<trkpt lat="53.26593577861786" lon="6.725234389305115">
				<ele>-6.600006103515625</ele>
				<time>2025-08-12T09:40:33Z</time>
			</trkpt>
			<trkpt lat="53.272990107536316" lon="6.745131611824036">
				<ele>-6.600006103515625</ele>
				<time>2025-08-12T09:40:34Z</time>
			</trkpt>
			<trkpt lat="53.27299427986145" lon="6.745160460472107">
				<ele>14.4000244140625</ele>
				<time>2025-08-12T09:50:07Z</time>
			</trkpt>
			<trkpt lat="53.27307605743408" lon="6.745426297187805">
				<ele>8.0</ele>
				<time>2025-08-12T09:50:09Z</time>
			</trkpt>
			<trkpt lat="53.27324950695038" lon="6.7458800077438354">
				<ele>-3.600006103515625</ele>
				<time>2025-08-12T09:50:18Z</time>
			</trkpt>
			<trkpt lat="53.27327585220337" lon="6.745948672294617">
				<ele>-3.600006103515625</ele>
				<time>2025-08-12T09:50:32Z</time>
			</trkpt>
			<trkpt lat="53.27695429325104" lon="6.756830811500549">
				<ele>-3.600006103515625</ele>
				<time>2025-08-12T09:50:33Z</time>
			</trkpt>
			<trkpt lat="53.277111411094666" lon="6.756930232048035">
				<ele>3.399993896484375</ele>
				<time>2025-08-12T10:00:08Z</time>
			</trkpt>
			<trkpt lat="53.27718186378479" lon="6.7571001052856445">
				<ele>3.79998779296875</ele>
				<time>2025-08-12T10:00:13Z</time>
			</trkpt>
			<trkpt lat="53.27728188037872" lon="6.757331609725952">
				<ele>-0.600006103515625</ele>
				<time>2025-08-12T10:00:19Z</time>
			</trkpt>
			<trkpt lat="53.27735686302185" lon="6.75758969783783">
				<ele>-0.20001220703125</ele>
				<time>2025-08-12T10:00:26Z</time>
			</trkpt>
			<trkpt lat="53.277366161346436" lon="6.757628083229065">
				<ele>-2.0</ele>
				<time>2025-08-12T10:00:33Z</time>
			</trkpt>
			<trkpt lat="53.284175753593445" lon="6.776595234870911">
				<ele>-2.399993896484375</ele>
				<time>2025-08-12T10:00:33Z</time>
			</trkpt>
			<trkpt lat="53.28418445587158" lon="6.77665638923645">
				<ele>2.0</ele>
				<time>2025-08-12T10:10:07Z</time>
			</trkpt>
			<trkpt lat="53.28425455093384" lon="6.776804447174072">
				<ele>2.399993896484375</ele>
				<time>2025-08-12T10:10:09Z</time>
			</trkpt>
			<trkpt lat="53.28433310985565" lon="6.776984333992004">
				<ele>2.600006103515625</ele>
				<time>2025-08-12T10:10:14Z</time>
			</trkpt>
			<trkpt lat="53.284443378448486" lon="6.777318000793457">
				<ele>-0.399993896484375</ele>
				<time>2025-08-12T10:10:20Z</time>
			</trkpt>
			<trkpt lat="53.284472823143005" lon="6.777413606643677">
				<ele>-1.399993896484375</ele>
				<time>2025-08-12T10:10:31Z</time>
			</trkpt>
			<trkpt lat="53.29091238975525" lon="6.795733213424683">
				<ele>-1.20001220703125</ele>
				<time>2025-08-12T10:10:33Z</time>
			</trkpt>
			<trkpt lat="53.29090666770935" lon="6.795765995979309">
				<ele>10.0</ele>
				<time>2025-08-12T10:20:06Z</time>
			</trkpt>
			<trkpt lat="53.29093086719513" lon="6.795910954475403">
				<ele>-0.20001220703125</ele>
				<time>2025-08-12T10:20:07Z</time>
			</trkpt>
			<trkpt lat="53.291006684303284" lon="6.79609489440918">
				<ele>-5.79998779296875</ele>
				<time>2025-08-12T10:20:11Z</time>
			</trkpt>
			<trkpt lat="53.29111897945404" lon="6.796488642692566">
				<ele>-5.20001220703125</ele>
				<time>2025-08-12T10:20:18Z</time>
			</trkpt>
			<trkpt lat="53.29115855693817" lon="6.79662013053894">
				<ele>-3.79998779296875</ele>
				<time>2025-08-12T10:20:30Z</time>
			</trkpt>
			<trkpt lat="53.29759979248047" lon="6.814878821372986">
				<ele>-3.600006103515625</ele>
				<time>2025-08-12T10:20:33Z</time>
			</trkpt>
			<trkpt lat="53.297406911849976" lon="6.814946413040161">
				<ele>59.20001220703125</ele>
				<time>2025-08-12T10:30:08Z</time>
			</trkpt>
			<trkpt lat="53.29749929904938" lon="6.815219402313232">
				<ele>5.399993896484375</ele>
				<time>2025-08-12T10:30:13Z</time>
			</trkpt>
			<trkpt lat="53.297603249549866" lon="6.81548535823822">
				<ele>-0.399993896484375</ele>
				<time>2025-08-12T10:30:22Z</time>
			</trkpt>
			<trkpt lat="53.297637939453125" lon="6.815572619438171">
				<ele>-1.79998779296875</ele>
				<time>2025-08-12T10:30:31Z</time>
			</trkpt>
			<trkpt lat="53.3028484582901" lon="6.833947062492371">
				<ele>-1.600006103515625</ele>
				<time>2025-08-12T10:30:33Z</time>
			</trkpt>
			<trkpt lat="53.30282759666443" lon="6.8340394496917725">
				<ele>-6.79998779296875</ele>
				<time>2025-08-12T10:40:06Z</time>
			</trkpt>
			<trkpt lat="53.30285978317261" lon="6.834214806556702">
				<ele>-4.79998779296875</ele>
				<time>2025-08-12T10:40:08Z</time>
			</trkpt>
			<trkpt lat="53.30290687084198" lon="6.834457635879517">
				<ele>-2.79998779296875</ele>
				<time>2025-08-12T10:40:14Z</time>
			</trkpt>
			<trkpt lat="53.30302119255066" lon="6.834924817085266">
				<ele>-3.79998779296875</ele>
				<time>2025-08-12T10:40:20Z</time>
			</trkpt>
			<trkpt lat="53.303030014038086" lon="6.834956169128418">
				<ele>-2.399993896484375</ele>
				<time>2025-08-12T10:40:33Z</time>
			</trkpt>
			<trkpt lat="53.30572044849396" lon="6.853062629699707">
				<ele>-2.600006103515625</ele>
				<time>2025-08-12T10:40:35Z</time>
			</trkpt>
			<trkpt lat="53.30572819709778" lon="6.853055715560913">
				<ele>-7.20001220703125</ele>
				<time>2025-08-12T10:50:06Z</time>
			</trkpt>
			<trkpt lat="53.305789947509766" lon="6.85314404964447">
				<ele>-9.399993896484375</ele>
				<time>2025-08-12T10:50:08Z</time>
			</trkpt>
			<trkpt lat="53.305798053741455" lon="6.8532867431640625">
				<ele>-3.399993896484375</ele>
				<time>2025-08-12T10:50:13Z</time>
			</trkpt>
			<trkpt lat="53.305811643600464" lon="6.8534135818481445">
				<ele>-3.0</ele>
				<time>2025-08-12T10:50:23Z</time>
			</trkpt>
			<trkpt lat="53.305811643600464" lon="6.8534135818481445">
				<ele>-3.399993896484375</ele>
				<time>2025-08-12T10:50:33Z</time>
			</trkpt>
			<trkpt lat="53.30812168121338" lon="6.865753412246704">
				<ele>-3.399993896484375</ele>
				<time>2025-08-12T10:50:34Z</time>
			</trkpt>
			<trkpt lat="53.308242201805115" lon="6.866051197052002">
				<ele>26.79998779296875</ele>
				<time>2025-08-12T11:00:09Z</time>
			</trkpt>
			<trkpt lat="53.3083119392395" lon="6.866345047950745">
				<ele>-12.600006103515625</ele>
				<time>2025-08-12T11:00:13Z</time>
			</trkpt>
			<trkpt lat="53.30838370323181" lon="6.866672158241272">
				<ele>-9.79998779296875</ele>
				<time>2025-08-12T11:00:21Z</time>
			</trkpt>
			<trkpt lat="53.308409094810486" lon="6.866809129714966">
				<ele>-8.79998779296875</ele>
				<time>2025-08-12T11:00:30Z</time>
			</trkpt>
			<trkpt lat="53.31166434288025" lon="6.88549017906189">
				<ele>-8.0</ele>
				<time>2025-08-12T11:00:33Z</time>
			</trkpt>
			<trkpt lat="53.311649799346924" lon="6.8856260776519775">
				<ele>6.600006103515625</ele>
				<time>2025-08-12T11:10:08Z</time>
			</trkpt>
			<trkpt lat="53.31166386604309" lon="6.886061906814575">
				<ele>4.20001220703125</ele>
				<time>2025-08-12T11:10:10Z</time>
			</trkpt>
			<trkpt lat="53.31173098087311" lon="6.886434435844421">
				<ele>-2.399993896484375</ele>
				<time>2025-08-12T11:10:20Z</time>
			</trkpt>
			<trkpt lat="53.31175446510315" lon="6.8865814208984375">
				<ele>-3.600006103515625</ele>
				<time>2025-08-12T11:10:30Z</time>
			</trkpt>
			<trkpt lat="53.312429547309875" lon="6.9081878662109375">
				<ele>-4.0</ele>
				<time>2025-08-12T11:10:33Z</time>
			</trkpt>
			<trkpt lat="53.31233775615692" lon="6.908540487289429">
				<ele>-3.399993896484375</ele>
				<time>2025-08-12T11:20:07Z</time>
			</trkpt>
			<trkpt lat="53.31231188774109" lon="6.9088733196258545">
				<ele>-5.20001220703125</ele>
				<time>2025-08-12T11:20:09Z</time>
			</trkpt>
			<trkpt lat="53.31229746341705" lon="6.909288763999939">
				<ele>-4.0</ele>
				<time>2025-08-12T11:20:15Z</time>
			</trkpt>
			<trkpt lat="53.31228470802307" lon="6.909647226333618">
				<ele>-3.20001220703125</ele>
				<time>2025-08-12T11:20:25Z</time>
			</trkpt>
			<trkpt lat="53.31313681602478" lon="6.931083559989929">
				<ele>-3.79998779296875</ele>
				<time>2025-08-12T11:20:33Z</time>
			</trkpt>
			<trkpt lat="53.31332623958588" lon="6.931290984153748">
				<ele>-9.79998779296875</ele>
				<time>2025-08-12T11:30:07Z</time>
			</trkpt>
			<trkpt lat="53.31349802017212" lon="6.931605219841003">
				<ele>-6.79998779296875</ele>
				<time>2025-08-12T11:30:14Z</time>
			</trkpt>
			<trkpt lat="53.31366312503815" lon="6.93189799785614">
				<ele>-6.600006103515625</ele>
				<time>2025-08-12T11:30:24Z</time>
			</trkpt>
			<trkpt lat="53.319695830345154" lon="6.939732313156128">
				<ele>-5.600006103515625</ele>
				<time>2025-08-12T11:30:33Z</time>
			</trkpt>
			<trkpt lat="53.31964671611786" lon="6.939770460128784">
				<ele>8.79998779296875</ele>
				<time>2025-08-12T11:40:11Z</time>
			</trkpt>
			<trkpt lat="53.31964552402496" lon="6.939775824546814">
				<ele>2.0</ele>
				<time>2025-08-12T11:40:22Z</time>
			</trkpt>
			<trkpt lat="53.31964635848999" lon="6.939773678779602">
				<ele>2.399993896484375</ele>
				<time>2025-08-12T11:40:33Z</time>
			</trkpt>
			<trkpt lat="53.3215126991272" lon="6.941205143928528">
				<ele>2.600006103515625</ele>
				<time>2025-08-12T11:40:35Z</time>
			</trkpt>
			<trkpt lat="53.321471095085144" lon="6.941098570823669">
				<ele>-14.0</ele>
				<time>2025-08-12T11:50:10Z</time>
			</trkpt>
			<trkpt lat="53.321396470069885" lon="6.941011905670166">
				<ele>-10.600006103515625</ele>
				<time>2025-08-12T11:50:13Z</time>
			</trkpt>
			<trkpt lat="53.32141995429993" lon="6.9409708976745605">
				<ele>-4.20001220703125</ele>
				<time>2025-08-12T11:50:22Z</time>
			</trkpt>
			<trkpt lat="53.3214168548584" lon="6.940966844558716">
				<ele>-2.399993896484375</ele>
				<time>2025-08-12T11:50:32Z</time>
			</trkpt>
			<trkpt lat="53.321264147758484" lon="6.940808176994324">
				<ele>-3.399993896484375</ele>
				<time>2025-08-12T11:50:33Z</time>
			</trkpt>
			<trkpt lat="53.32144320011139" lon="6.940992832183838">
				<ele>-17.79998779296875</ele>
				<time>2025-08-12T12:00:52Z</time>
			</trkpt>
			<trkpt lat="53.32143950462341" lon="6.940972805023193">
				<ele>3.600006103515625</ele>
				<time>2025-08-12T12:10:08Z</time>
			</trkpt>
			<trkpt lat="53.32140910625458" lon="6.940951228141785">
				<ele>-5.20001220703125</ele>
				<time>2025-08-12T12:10:10Z</time>
			</trkpt>
			<trkpt lat="53.32140588760376" lon="6.940962791442871">
				<ele>-1.20001220703125</ele>
				<time>2025-08-12T12:10:18Z</time>
			</trkpt>
			<trkpt lat="53.321399331092834" lon="6.940969347953796">
				<ele>0.0</ele>
				<time>2025-08-12T12:10:31Z</time>
			</trkpt>
			<trkpt lat="53.32317137718201" lon="6.951789021492004">
				<ele>-0.79998779296875</ele>
				<time>2025-08-12T12:10:43Z</time>
			</trkpt>
			<trkpt lat="53.323142409324646" lon="6.951949119567871">
				<ele>0.600006103515625</ele>
				<time>2025-08-12T12:20:10Z</time>
			</trkpt>
			<trkpt lat="53.323115825653076" lon="6.952161431312561">
				<ele>-3.79998779296875</ele>
				<time>2025-08-12T12:20:16Z</time>
			</trkpt>
			<trkpt lat="53.32307207584381" lon="6.95252001285553">
				<ele>-4.600006103515625</ele>
				<time>2025-08-12T12:20:22Z</time>
			</trkpt>
			<trkpt lat="53.32302904129028" lon="6.952837109565735">
				<ele>-7.600006103515625</ele>
				<time>2025-08-12T12:20:32Z</time>
			</trkpt>
			<trkpt lat="53.32297503948212" lon="6.9531896114349365">
				<ele>-4.79998779296875</ele>
				<time>2025-08-12T12:20:40Z</time>
			</trkpt>
			<trkpt lat="53.32295608520508" lon="6.953296065330505">
				<ele>-4.20001220703125</ele>
				<time>2025-08-12T12:20:49Z</time>
			</trkpt>
			<trkpt lat="53.318987131118774" lon="6.973920583724976">
				<ele>-4.79998779296875</ele>
				<time>2025-08-12T12:20:51Z</time>
			</trkpt>
			<trkpt lat="53.31896948814392" lon="6.974002361297607">
				<ele>-9.20001220703125</ele>
				<time>2025-08-12T12:30:06Z</time>
			</trkpt>
			<trkpt lat="53.31893825531006" lon="6.974300861358643">
				<ele>-12.399993896484375</ele>
				<time>2025-08-12T12:30:07Z</time>
			</trkpt>
			<trkpt lat="53.318902015686035" lon="6.974510669708252">
				<ele>2.399993896484375</ele>
				<time>2025-08-12T12:30:13Z</time>
			</trkpt>
			<trkpt lat="53.31883203983307" lon="6.974846601486206">
				<ele>-1.79998779296875</ele>
				<time>2025-08-12T12:30:20Z</time>
			</trkpt>
			<trkpt lat="53.3187974691391" lon="6.97505509853363">
				<ele>-4.600006103515625</ele>
				<time>2025-08-12T12:30:30Z</time>
			</trkpt>
			<trkpt lat="53.31864249706268" lon="6.975657820701599">
				<ele>-6.399993896484375</ele>
				<time>2025-08-12T12:30:35Z</time>
			</trkpt>
			<trkpt lat="53.31864249706268" lon="6.975657820701599">
				<ele>-6.0</ele>
				<time>2025-08-12T12:30:51Z</time>
			</trkpt>
			<trkpt lat="53.315250754356384" lon="6.996537923812866">
				<ele>-6.0</ele>
				<time>2025-08-12T12:30:52Z</time>
			</trkpt>
			<trkpt lat="53.31522214412689" lon="6.9967979192733765">
				<ele>2.20001220703125</ele>
				<time>2025-08-12T12:40:10Z</time>
			</trkpt>
			<trkpt lat="53.31516742706299" lon="6.9971901178359985">
				<ele>2.399993896484375</ele>
				<time>2025-08-12T12:40:16Z</time>
			</trkpt>
			<trkpt lat="53.31516194343567" lon="6.997544765472412">
				<ele>-7.0</ele>
				<time>2025-08-12T12:40:26Z</time>
			</trkpt>
			<trkpt lat="53.3151752948761" lon="6.997933387756348">
				<ele>-5.20001220703125</ele>
				<time>2025-08-12T12:40:35Z</time>
			</trkpt>
			<trkpt lat="53.3151730298996" lon="6.998212575912476">
				<ele>-4.399993896484375</ele>
				<time>2025-08-12T12:40:45Z</time>
			</trkpt>
			<trkpt lat="53.32366585731506" lon="7.007362961769104">
				<ele>-3.0</ele>
				<time>2025-08-12T12:40:51Z</time>
			</trkpt>
			<trkpt lat="53.32378399372101" lon="7.007238030433655">
				<ele>-2.399993896484375</ele>
				<time>2025-08-12T12:50:07Z</time>
			</trkpt>
			<trkpt lat="53.32390260696411" lon="7.007077574729919">
				<ele>-4.399993896484375</ele>
				<time>2025-08-12T12:50:13Z</time>
			</trkpt>
			<trkpt lat="53.324047207832336" lon="7.006887197494507">
				<ele>-3.20001220703125</ele>
				<time>2025-08-12T12:50:20Z</time>
			</trkpt>
			<trkpt lat="53.32416605949402" lon="7.006744384765625">
				<ele>-3.79998779296875</ele>
				<time>2025-08-12T12:50:30Z</time>
			</trkpt>
			<trkpt lat="53.32428824901581" lon="7.006590008735657">
				<ele>-4.20001220703125</ele>
				<time>2025-08-12T12:50:38Z</time>
			</trkpt>
			<trkpt lat="53.324381828308105" lon="7.006479859352112">
				<ele>-5.79998779296875</ele>
				<time>2025-08-12T12:50:46Z</time>
			</trkpt>
			<trkpt lat="53.33353888988495" lon="6.995402574539185">
				<ele>-5.79998779296875</ele>
				<time>2025-08-12T12:50:51Z</time>
			</trkpt>
			<trkpt lat="53.333544969558716" lon="6.995351672172546">
				<ele>-9.20001220703125</ele>
				<time>2025-08-12T13:00:28Z</time>
			</trkpt>
			<trkpt lat="53.3336546421051" lon="6.995108366012573">
				<ele>-8.79998779296875</ele>
				<time>2025-08-12T13:00:29Z</time>
			</trkpt>
			<trkpt lat="53.33376610279083" lon="6.994993686676025">
				<ele>-17.20001220703125</ele>
				<time>2025-08-12T13:00:35Z</time>
			</trkpt>
			<trkpt lat="53.33393335342407" lon="6.994752764701843">
				<ele>-7.600006103515625</ele>
				<time>2025-08-12T13:00:41Z</time>
			</trkpt>
			<trkpt lat="53.333951115608215" lon="6.9947264194488525">
				<ele>-5.79998779296875</ele>
				<time>2025-08-12T13:00:51Z</time>
			</trkpt>
			<trkpt lat="53.34604561328888" lon="6.988080859184265">
				<ele>-5.600006103515625</ele>
				<time>2025-08-12T13:00:51Z</time>
			</trkpt>
			<trkpt lat="53.346080899238586" lon="6.988031625747681">
				<ele>1.600006103515625</ele>
				<time>2025-08-12T13:10:26Z</time>
			</trkpt>
			<trkpt lat="53.34614098072052" lon="6.98792290687561">
				<ele>2.79998779296875</ele>
				<time>2025-08-12T13:10:28Z</time>
			</trkpt>
			<trkpt lat="53.34633243083954" lon="6.98786473274231">
				<ele>-5.0</ele>
				<time>2025-08-12T13:10:33Z</time>
			</trkpt>
			<trkpt lat="53.346481800079346" lon="6.987788081169128">
				<ele>-2.600006103515625</ele>
				<time>2025-08-12T13:10:40Z</time>
			</trkpt>
			<trkpt lat="53.3465895652771" lon="6.98773980140686">
				<ele>-3.0</ele>
				<time>2025-08-12T13:10:47Z</time>
			</trkpt>
			<trkpt lat="53.35925602912903" lon="6.981736660003662">
				<ele>-3.600006103515625</ele>
				<time>2025-08-12T13:10:51Z</time>
			</trkpt>
			<trkpt lat="53.359254479408264" lon="6.981903433799744">
				<ele>-11.0</ele>
				<time>2025-08-12T13:20:27Z</time>
			</trkpt>
			<trkpt lat="53.35938107967377" lon="6.981887459754944">
				<ele>-11.399993896484375</ele>
				<time>2025-08-12T13:20:29Z</time>
			</trkpt>
			<trkpt lat="53.359593987464905" lon="6.9818092584609985">
				<ele>-7.20001220703125</ele>
				<time>2025-08-12T13:20:34Z</time>
			</trkpt>
			<trkpt lat="53.359782695770264" lon="6.981698036193848">
				<ele>-4.20001220703125</ele>
				<time>2025-08-12T13:20:43Z</time>
			</trkpt>
			<trkpt lat="53.372212409973145" lon="6.973429083824158">
				<ele>-4.600006103515625</ele>
				<time>2025-08-12T13:20:51Z</time>
			</trkpt>
			<trkpt lat="53.37234973907471" lon="6.973482728004456">
				<ele>45.20001220703125</ele>
				<time>2025-08-12T13:30:24Z</time>
			</trkpt>
			<trkpt lat="53.372546911239624" lon="6.973367094993591">
				<ele>-6.0</ele>
				<time>2025-08-12T13:30:30Z</time>
			</trkpt>
			<trkpt lat="53.372852087020874" lon="6.973077774047852">
				<ele>-3.0</ele>
				<time>2025-08-12T13:30:38Z</time>
			</trkpt>
			<trkpt lat="53.372852087020874" lon="6.973077774047852">
				<ele>-1.79998779296875</ele>
				<time>2025-08-12T13:30:51Z</time>
			</trkpt>
			<trkpt lat="53.38619005680084" lon="6.96235454082489">
				<ele>-1.79998779296875</ele>
				<time>2025-08-12T13:30:52Z</time>
			</trkpt>
			<trkpt lat="53.38628339767456" lon="6.962358355522156">
				<ele>-7.20001220703125</ele>
				<time>2025-08-12T13:40:25Z</time>
			</trkpt>
			<trkpt lat="53.38647150993347" lon="6.9622563123703">
				<ele>-7.600006103515625</ele>
				<time>2025-08-12T13:40:28Z</time>
			</trkpt>
			<trkpt lat="53.38667964935303" lon="6.962087392807007">
				<ele>-7.20001220703125</ele>
				<time>2025-08-12T13:40:35Z</time>
			</trkpt>
			<trkpt lat="53.38688135147095" lon="6.961964845657349">
				<ele>-6.20001220703125</ele>
				<time>2025-08-12T13:40:44Z</time>
			</trkpt>
			<trkpt lat="53.40143311023712" lon="6.951265931129456">
				<ele>-5.399993896484375</ele>
				<time>2025-08-12T13:40:51Z</time>
			</trkpt>
			<trkpt lat="53.40143823623657" lon="6.951188445091248">
				<ele>8.600006103515625</ele>
				<time>2025-08-12T13:50:27Z</time>
			</trkpt>
			<trkpt lat="53.401623368263245" lon="6.950998544692993">
				<ele>-3.0</ele>
				<time>2025-08-12T13:50:29Z</time>
			</trkpt>
			<trkpt lat="53.40184283256531" lon="6.9507997035980225">
				<ele>-5.20001220703125</ele>
				<time>2025-08-12T13:50:37Z</time>
			</trkpt>
			<trkpt lat="53.40200209617615" lon="6.950672388076782">
				<ele>-4.600006103515625</ele>
				<time>2025-08-12T13:50:46Z</time>
			</trkpt>
			<trkpt lat="53.40202808380127" lon="6.95065450668335">
				<ele>-2.600006103515625</ele>
				<time>2025-08-12T13:50:51Z</time>
			</trkpt>
			<trkpt lat="53.41658401489258" lon="6.93838107585907">
				<ele>-2.600006103515625</ele>
				<time>2025-08-12T13:50:53Z</time>
			</trkpt>
			<trkpt lat="53.41675913333893" lon="6.938280940055847">
				<ele>-16.399993896484375</ele>
				<time>2025-08-12T14:00:25Z</time>
			</trkpt>
			<trkpt lat="53.416980266571045" lon="6.938127517700195">
				<ele>-6.0</ele>
				<time>2025-08-12T14:00:31Z</time>
			</trkpt>
			<trkpt lat="53.41720724105835" lon="6.937933921813965">
				<ele>-5.399993896484375</ele>
				<time>2025-08-12T14:00:38Z</time>
			</trkpt>
			<trkpt lat="53.41733705997467" lon="6.9378275871276855">
				<ele>-4.0</ele>
				<time>2025-08-12T14:00:47Z</time>
			</trkpt>
			<trkpt lat="53.43155753612518" lon="6.9211015701293945">
				<ele>-4.600006103515625</ele>
				<time>2025-08-12T14:00:51Z</time>
			</trkpt>
			<trkpt lat="53.43158137798309" lon="6.920909285545349">
				<ele>19.79998779296875</ele>
				<time>2025-08-12T14:10:30Z</time>
			</trkpt>
			<trkpt lat="53.431745648384094" lon="6.920724511146545">
				<ele>3.399993896484375</ele>
				<time>2025-08-12T14:10:32Z</time>
			</trkpt>
			<trkpt lat="53.43187475204468" lon="6.92052698135376">
				<ele>-1.79998779296875</ele>
				<time>2025-08-12T14:10:38Z</time>
			</trkpt>
			<trkpt lat="53.432082653045654" lon="6.920290231704712">
				<ele>-6.0</ele>
				<time>2025-08-12T14:10:44Z</time>
			</trkpt>
			<trkpt lat="53.432109117507935" lon="6.920258641242981">
				<ele>-6.0</ele>
				<time>2025-08-12T14:10:51Z</time>
			</trkpt>
			<trkpt lat="53.44701850414276" lon="6.9018107652664185">
				<ele>-5.79998779296875</ele>
				<time>2025-08-12T14:10:53Z</time>
			</trkpt>
			<trkpt lat="53.4470180273056" lon="6.9017181396484375">
				<ele>8.600006103515625</ele>
				<time>2025-08-12T14:20:29Z</time>
			</trkpt>
			<trkpt lat="53.44724500179291" lon="6.901435852050781">
				<ele>-2.399993896484375</ele>
				<time>2025-08-12T14:20:32Z</time>
			</trkpt>
			<trkpt lat="53.447479128837585" lon="6.9011489152908325">
				<ele>-4.79998779296875</ele>
				<time>2025-08-12T14:20:41Z</time>
			</trkpt>
			<trkpt lat="53.44752395153046" lon="6.90108847618103">
				<ele>-2.600006103515625</ele>
				<time>2025-08-12T14:20:51Z</time>
			</trkpt>
			<trkpt lat="53.46102058887482" lon="6.878101348876953">
				<ele>-3.600006103515625</ele>
				<time>2025-08-12T14:20:52Z</time>
			</trkpt>
			<trkpt lat="53.461101770401" lon="6.877981424331665">
				<ele>-6.79998779296875</ele>
				<time>2025-08-12T14:30:26Z</time>
			</trkpt>
			<trkpt lat="53.46118378639221" lon="6.877788305282593">
				<ele>-3.399993896484375</ele>
				<time>2025-08-12T14:30:29Z</time>
			</trkpt>
			<trkpt lat="53.46133637428284" lon="6.877534985542297">
				<ele>-7.0</ele>
				<time>2025-08-12T14:30:35Z</time>
			</trkpt>
			<trkpt lat="53.46154451370239" lon="6.877169847488403">
				<ele>-5.399993896484375</ele>
				<time>2025-08-12T14:30:41Z</time>
			</trkpt>
			<trkpt lat="53.461615681648254" lon="6.877047419548035">
				<ele>-6.20001220703125</ele>
				<time>2025-08-12T14:30:50Z</time>
			</trkpt>
			<trkpt lat="53.47481393814087" lon="6.853521108627319">
				<ele>-5.399993896484375</ele>
				<time>2025-08-12T14:30:52Z</time>
			</trkpt>
			<trkpt lat="53.474878430366516" lon="6.853447914123535">
				<ele>-4.600006103515625</ele>
				<time>2025-08-12T14:40:28Z</time>
			</trkpt>
			<trkpt lat="53.47507083415985" lon="6.8531821966171265">
				<ele>-10.79998779296875</ele>
				<time>2025-08-12T14:40:31Z</time>
			</trkpt>
			<trkpt lat="53.47524833679199" lon="6.852774739265442">
				<ele>-12.79998779296875</ele>
				<time>2025-08-12T14:40:39Z</time>
			</trkpt>
			<trkpt lat="53.47535312175751" lon="6.852561712265015">
				<ele>-10.20001220703125</ele>
				<time>2025-08-12T14:40:48Z</time>
			</trkpt>
			<trkpt lat="53.48754930496216" lon="6.827783465385437">
				<ele>-9.79998779296875</ele>
				<time>2025-08-12T14:40:52Z</time>
			</trkpt>
			<trkpt lat="53.48767805099487" lon="6.827650189399719">
				<ele>-7.600006103515625</ele>
				<time>2025-08-12T14:50:28Z</time>
			</trkpt>
			<trkpt lat="53.487865805625916" lon="6.827327370643616">
				<ele>-6.399993896484375</ele>
				<time>2025-08-12T14:50:29Z</time>
			</trkpt>
			<trkpt lat="53.48802196979523" lon="6.827047944068909">
				<ele>-3.399993896484375</ele>
				<time>2025-08-12T14:50:34Z</time>
			</trkpt>
			<trkpt lat="53.488171339035034" lon="6.8267011642456055">
				<ele>-3.20001220703125</ele>
				<time>2025-08-12T14:50:41Z</time>
			</trkpt>
			<trkpt lat="53.488242983818054" lon="6.826526403427124">
				<ele>-3.0</ele>
				<time>2025-08-12T14:50:49Z</time>
			</trkpt>
			<trkpt lat="53.50060284137726" lon="6.802666425704956">
				<ele>-2.79998779296875</ele>
				<time>2025-08-12T14:50:52Z</time>
			</trkpt>
			<trkpt lat="53.50065040588379" lon="6.802638649940491">
				<ele>-16.399993896484375</ele>
				<time>2025-08-12T15:00:26Z</time>
			</trkpt>
			<trkpt lat="53.50085163116455" lon="6.802398204803467">
				<ele>-13.0</ele>
				<time>2025-08-12T15:00:27Z</time>
			</trkpt>
			<trkpt lat="53.50102651119232" lon="6.802213072776794">
				<ele>-10.79998779296875</ele>
				<time>2025-08-12T15:00:33Z</time>
			</trkpt>
			<trkpt lat="53.50122392177582" lon="6.801901459693909">
				<ele>-8.0</ele>
				<time>2025-08-12T15:00:40Z</time>
			</trkpt>
			<trkpt lat="53.50132691860199" lon="6.801760792732239">
				<ele>-8.399993896484375</ele>
				<time>2025-08-12T15:00:49Z</time>
			</trkpt>
			<trkpt lat="53.51469945907593" lon="6.777201414108276">
				<ele>-8.0</ele>
				<time>2025-08-12T15:00:52Z</time>
			</trkpt>
			<trkpt lat="53.51473772525787" lon="6.77706515789032">
				<ele>-6.20001220703125</ele>
				<time>2025-08-12T15:10:28Z</time>
			</trkpt>
			<trkpt lat="53.51491165161133" lon="6.776716232299805">
				<ele>-7.20001220703125</ele>
				<time>2025-08-12T15:10:30Z</time>
			</trkpt>
			<trkpt lat="53.51511204242706" lon="6.776343822479248">
				<ele>-5.600006103515625</ele>
				<time>2025-08-12T15:10:38Z</time>
			</trkpt>
			<trkpt lat="53.51529121398926" lon="6.776026487350464">
				<ele>-7.20001220703125</ele>
				<time>2025-08-12T15:10:46Z</time>
			</trkpt>
			<trkpt lat="53.51529121398926" lon="6.776026487350464">
				<ele>-7.600006103515625</ele>
				<time>2025-08-12T15:10:52Z</time>
			</trkpt>
			<trkpt lat="53.52839136123657" lon="6.74703061580658">
				<ele>-7.600006103515625</ele>
				<time>2025-08-12T15:10:53Z</time>
			</trkpt>
			<trkpt lat="53.52856361865997" lon="6.746815919876099">
				<ele>-3.20001220703125</ele>
				<time>2025-08-12T15:20:26Z</time>
			</trkpt>
			<trkpt lat="53.52875077724457" lon="6.7465691566467285">
				<ele>-8.600006103515625</ele>
				<time>2025-08-12T15:20:32Z</time>
			</trkpt>
			<trkpt lat="53.52898418903351" lon="6.746211767196655">
				<ele>-10.399993896484375</ele>
				<time>2025-08-12T15:20:39Z</time>
			</trkpt>
			<trkpt lat="53.529114961624146" lon="6.746001124382019">
				<ele>-8.0</ele>
				<time>2025-08-12T15:20:48Z</time>
			</trkpt>
			<trkpt lat="53.544045090675354" lon="6.721756815910339">
				<ele>-7.399993896484375</ele>
				<time>2025-08-12T15:20:52Z</time>
			</trkpt>
			<trkpt lat="53.54405498504639" lon="6.7216328382492065">
				<ele>-1.0</ele>
				<time>2025-08-12T15:30:28Z</time>
			</trkpt>
			<trkpt lat="53.54427707195282" lon="6.72131621837616">
				<ele>-6.79998779296875</ele>
				<time>2025-08-12T15:30:30Z</time>
			</trkpt>
			<trkpt lat="53.54450273513794" lon="6.721012473106384">
				<ele>-8.20001220703125</ele>
				<time>2025-08-12T15:30:39Z</time>
			</trkpt>
			<trkpt lat="53.54466164112091" lon="6.72075080871582">
				<ele>-7.20001220703125</ele>
				<time>2025-08-12T15:30:47Z</time>
			</trkpt>
			<trkpt lat="53.55224943161011" lon="6.7164329290390015">
				<ele>-7.79998779296875</ele>
				<time>2025-08-12T15:30:52Z</time>
			</trkpt>
			<trkpt lat="53.55227196216583" lon="6.716480255126953">
				<ele>-0.600006103515625</ele>
				<time>2025-08-12T15:40:27Z</time>
			</trkpt>
			<trkpt lat="53.552247405052185" lon="6.716585755348206">
				<ele>-9.0</ele>
				<time>2025-08-12T15:40:34Z</time>
			</trkpt>
			<trkpt lat="53.55225431919098" lon="6.716709494590759">
				<ele>-9.399993896484375</ele>
				<time>2025-08-12T15:40:43Z</time>
			</trkpt>
			<trkpt lat="53.55225718021393" lon="6.716724753379822">
				<ele>-9.0</ele>
				<time>2025-08-12T15:40:52Z</time>
			</trkpt>
			<trkpt lat="53.5531644821167" lon="6.725539207458496">
				<ele>-9.20001220703125</ele>
				<time>2025-08-12T15:40:52Z</time>
			</trkpt>
			<trkpt lat="53.55317008495331" lon="6.725624442100525">
				<ele>-8.600006103515625</ele>
				<time>2025-08-12T15:50:29Z</time>
			</trkpt>
			<trkpt lat="53.55318892002106" lon="6.725756406784058">
				<ele>-8.399993896484375</ele>
				<time>2025-08-12T15:50:35Z</time>
			</trkpt>
			<trkpt lat="53.55319881439209" lon="6.725927352905273">
				<ele>-8.20001220703125</ele>
				<time>2025-08-12T15:50:43Z</time>
			</trkpt>
			<trkpt lat="53.55436432361603" lon="6.737396001815796">
				<ele>-7.79998779296875</ele>
				<time>2025-08-12T15:50:52Z</time>
			</trkpt>
			<trkpt lat="53.55437672138214" lon="6.737411379814148">
				<ele>-9.0</ele>
				<time>2025-08-12T16:00:29Z</time>
			</trkpt>
			<trkpt lat="53.55439376831055" lon="6.737604737281799">
				<ele>-8.600006103515625</ele>
				<time>2025-08-12T16:00:30Z</time>
			</trkpt>
			<trkpt lat="53.55440866947174" lon="6.73784065246582">
				<ele>-8.600006103515625</ele>
				<time>2025-08-12T16:00:39Z</time>
			</trkpt>
			<trkpt lat="53.55440938472748" lon="6.737908959388733">
				<ele>-7.0</ele>
				<time>2025-08-12T16:00:50Z</time>
			</trkpt>
			<trkpt lat="53.55747902393341" lon="6.749130606651306">
				<ele>-7.20001220703125</ele>
				<time>2025-08-12T16:00:52Z</time>
			</trkpt>
			<trkpt lat="53.557504415512085" lon="6.749165654182434">
				<ele>-7.399993896484375</ele>
				<time>2025-08-12T16:10:29Z</time>
			</trkpt>
			<trkpt lat="53.5576605796814" lon="6.749291181564331">
				<ele>-6.600006103515625</ele>
				<time>2025-08-12T16:10:31Z</time>
			</trkpt>
			<trkpt lat="53.557852029800415" lon="6.749493718147278">
				<ele>-4.20001220703125</ele>
				<time>2025-08-12T16:10:40Z</time>
			</trkpt>
			<trkpt lat="53.55788516998291" lon="6.749527931213379">
				<ele>-6.399993896484375</ele>
				<time>2025-08-12T16:10:51Z</time>
			</trkpt>
			<trkpt lat="53.560091853141785" lon="6.748220324516296">
				<ele>-6.600006103515625</ele>
				<time>2025-08-12T16:10:52Z</time>
			</trkpt>
			<trkpt lat="53.560093998909" lon="6.748198866844177">
				<ele>-6.0</ele>
				<time>2025-08-12T16:20:29Z</time>
			</trkpt>
			<trkpt lat="53.56005251407623" lon="6.748167037963867">
				<ele>-8.79998779296875</ele>
				<time>2025-08-12T16:20:31Z</time>
			</trkpt>
			<trkpt lat="53.56006920337677" lon="6.748157978057861">
				<ele>-3.399993896484375</ele>
				<time>2025-08-12T16:20:43Z</time>
			</trkpt>
			<trkpt lat="53.560070633888245" lon="6.748158812522888">
				<ele>-7.600006103515625</ele>
				<time>2025-08-12T16:20:52Z</time>
			</trkpt>
		</trkseg>
	</trk>
</gpx>
