<?xml version="1.0" encoding="utf-8"?>
<gpx creator="Garmin Explore App" version="1.1" xmlns:adv="http://www.garmin.com/xmlschemas/AdventuresExtensions/v1" xmlns:gpxtpx="http://www.garmin.com/xmlschemas/TrackPointExtension/v1" xmlns:gpxtrx="http://www.garmin.com/xmlschemas/GpxExtensions/v3" xmlns:gpxx="http://www.garmin.com/xmlschemas/GpxExtensions/v3" xmlns:trp="http://www.garmin.com/xmlschemas/TripExtensions/v1" xmlns:wptx1="http://www.garmin.com/xmlschemas/WaypointExtension/v1" xmlns:xsi="http://www.w3.org/2001/XMLSchema-instance" xmlns="http://www.topografix.com/GPX/1/1" xsi:schemaLocation="http://www.topografix.com/GPX/1/1 http://www.topografix.com/GPX/1/1/gpx.xsd http://www.garmin.com/xmlschemas/WaypointExtension/v1 http://www8.garmin.com/xmlschemas/WaypointExtensionv1.xsd http://www.garmin.com/xmlschemas/TrackPointExtension/v1 http://www.garmin.com/xmlschemas/TrackPointExtensionv1.xsd http://www.garmin.com/xmlschemas/GpxExtensions/v3 http://www8.garmin.com/xmlschemas/GpxExtensionsv3.xsd http://www.garmin.com/xmlschemas/ActivityExtension/v1 http://www8.garmin.com/xmlschemas/ActivityExtensionv1.xsd http://www.garmin.com/xmlschemas/AdventuresExtensions/v1 http://www8.garmin.com/xmlschemas/AdventuresExtensionv1.xsd http://www.garmin.com/xmlschemas/PressureExtension/v1 http://www.garmin.com/xmlschemas/PressureExtensionv1.xsd">
	<metadata>
		<name>2025-08-01 12:50:20</name>
		<link href="http://www.garmin.com">
			<text>Garmin International</text>
		</link>
		<time>2025-08-01T18:05:52Z</time>
	</metadata>
	<trk>
		<name>2025-08-01 12:50:20</name>
		<extensions>
			<gpxx:TrackExtension>
				<gpxx:DisplayColor>White</gpxx:DisplayColor>
			</gpxx:TrackExtension>
		</extensions>
		<trkseg>
			<trkpt lat="54.3303587436676" lon="10.176265835762024">
				<ele>9.999999562023526e+24</ele>
				<time>2025-08-01T10:50:20Z</time>
			</trkpt>
			<trkpt lat="54.333532214164734" lon="10.168440461158752">
				<ele>-7.399993896484375</ele>
				<time>2025-08-01T10:51:03Z</time>
			</trkpt>
			<trkpt lat="54.333532214164734" lon="10.168440461158752">
				<ele>-17.79998779296875</ele>
				<time>2025-08-01T11:01:10Z</time>
			</trkpt>
			<trkpt lat="54.347209453582764" lon="10.16051709651947">
				<ele>-17.79998779296875</ele>
				<time>2025-08-01T11:01:11Z</time>
			</trkpt>
			<trkpt lat="54.34736704826355" lon="10.160445094108582">
				<ele>4.79998779296875</ele>
				<time>2025-08-01T11:10:44Z</time>
			</trkpt>
			<trkpt lat="54.34754753112793" lon="10.160387992858887">
				<ele>-7.79998779296875</ele>
				<time>2025-08-01T11:10:50Z</time>
			</trkpt>
			<trkpt lat="54.34775519371033" lon="10.16033124923706">
				<ele>-3.79998779296875</ele>
				<time>2025-08-01T11:10:57Z</time>
			</trkpt>
			<trkpt lat="54.34794223308563" lon="10.160286664962769">
				<ele>-0.79998779296875</ele>
				<time>2025-08-01T11:11:05Z</time>
			</trkpt>
			<trkpt lat="54.36168324947357" lon="10.154410600662231">
				<ele>-1.0</ele>
				<time>2025-08-01T11:11:11Z</time>
			</trkpt>
			<trkpt lat="54.36182641983032" lon="10.154327154159546">
				<ele>-2.399993896484375</ele>
				<time>2025-08-01T11:20:44Z</time>
			</trkpt>
			<trkpt lat="54.361950278282166" lon="10.15424132347107">
				<ele>-6.399993896484375</ele>
				<time>2025-08-01T11:20:48Z</time>
			</trkpt>
			<trkpt lat="54.362191677093506" lon="10.154069066047668">
				<ele>-6.79998779296875</ele>
				<time>2025-08-01T11:20:53Z</time>
			</trkpt>
			<trkpt lat="54.362396597862244" lon="10.153908491134644">
				<ele>-4.79998779296875</ele>
				<time>2025-08-01T11:21:03Z</time>
			</trkpt>
			<trkpt lat="54.365620136260986" lon="10.147664785385132">
				<ele>-3.600006103515625</ele>
				<time>2025-08-01T11:21:11Z</time>
			</trkpt>
			<trkpt lat="54.36561596393585" lon="10.147623538970947">
				<ele>9.20001220703125</ele>
				<time>2025-08-01T11:30:45Z</time>
			</trkpt>
			<trkpt lat="54.36562740802765" lon="10.147378206253052">
				<ele>6.79998779296875</ele>
				<time>2025-08-01T11:30:46Z</time>
			</trkpt>
			<trkpt lat="54.36563777923584" lon="10.146974444389343">
				<ele>1.399993896484375</ele>
				<time>2025-08-01T11:30:52Z</time>
			</trkpt>
			<trkpt lat="54.36566162109375" lon="10.14654815196991">
				<ele>0.600006103515625</ele>
				<time>2025-08-01T11:31:01Z</time>
			</trkpt>
			<trkpt lat="54.36566388607025" lon="10.146505236625671">
				<ele>-0.79998779296875</ele>
				<time>2025-08-01T11:31:11Z</time>
			</trkpt>
			<trkpt lat="54.36644232273102" lon="10.141186237335205">
				<ele>-0.79998779296875</ele>
				<time>2025-08-01T11:31:11Z</time>
			</trkpt>
			<trkpt lat="54.36645174026489" lon="10.14116108417511">
				<ele>6.600006103515625</ele>
				<time>2025-08-01T11:35:30Z</time>
			</trkpt>
			<trkpt lat="54.36642014980316" lon="10.141221642494202">
				<ele>0.600006103515625</ele>
				<time>2025-08-01T11:35:31Z</time>
			</trkpt>
			<trkpt lat="54.36640024185181" lon="10.141227722167969">
				<ele>-1.20001220703125</ele>
				<time>2025-08-01T11:35:36Z</time>
			</trkpt>
			<trkpt lat="54.366400480270386" lon="10.141261100769043">
				<ele>-2.0</ele>
				<time>2025-08-01T11:35:43Z</time>
			</trkpt>
			<trkpt lat="54.36643743515015" lon="10.14103090763092">
				<ele>-2.0</ele>
				<time>2025-08-01T11:35:53Z</time>
			</trkpt>
			<trkpt lat="54.36642944812775" lon="10.14116621017456">
				<ele>-3.600006103515625</ele>
				<time>2025-08-01T11:40:45Z</time>
			</trkpt>
			<trkpt lat="54.366411328315735" lon="10.141239404678345">
				<ele>-4.0</ele>
				<time>2025-08-01T11:40:46Z</time>
			</trkpt>
			<trkpt lat="54.366405606269836" lon="10.14127767086029">
				<ele>-4.20001220703125</ele>
				<time>2025-08-01T11:40:50Z</time>
			</trkpt>
			<trkpt lat="54.36640965938568" lon="10.141268134117126">
				<ele>-2.79998779296875</ele>
				<time>2025-08-01T11:40:57Z</time>
			</trkpt>
			<trkpt lat="54.36640787124634" lon="10.14126718044281">
				<ele>-2.20001220703125</ele>
				<time>2025-08-01T11:41:09Z</time>
			</trkpt>
			<trkpt lat="54.366456151008606" lon="10.141236543655396">
				<ele>-2.20001220703125</ele>
				<time>2025-08-01T11:41:11Z</time>
			</trkpt>
			<trkpt lat="54.36642813682556" lon="10.141153335571289">
				<ele>-13.79998779296875</ele>
				<time>2025-08-01T11:50:36Z</time>
			</trkpt>
			<trkpt lat="54.366414070129395" lon="10.14123022556305">
				<ele>-1.0</ele>
				<time>2025-08-01T11:50:39Z</time>
			</trkpt>
			<trkpt lat="54.366422176361084" lon="10.141220569610596">
				<ele>-6.20001220703125</ele>
				<time>2025-08-01T11:50:51Z</time>
			</trkpt>
			<trkpt lat="54.36690902709961" lon="10.136352181434631">
				<ele>-3.20001220703125</ele>
				<time>2025-08-01T11:51:11Z</time>
			</trkpt>
			<trkpt lat="54.36714327335358" lon="10.136350154876709">
				<ele>59.20001220703125</ele>
				<time>2025-08-01T12:00:45Z</time>
			</trkpt>
			<trkpt lat="54.367180943489075" lon="10.136017680168152">
				<ele>-5.399993896484375</ele>
				<time>2025-08-01T12:00:49Z</time>
			</trkpt>
			<trkpt lat="54.36721169948578" lon="10.135714769363403">
				<ele>-2.0</ele>
				<time>2025-08-01T12:00:57Z</time>
			</trkpt>
			<trkpt lat="54.367276430130005" lon="10.135460615158081">
				<ele>-0.600006103515625</ele>
				<time>2025-08-01T12:01:05Z</time>
			</trkpt>
			<trkpt lat="54.36728310585022" lon="10.135422110557556">
				<ele>0.0</ele>
				<time>2025-08-01T12:01:11Z</time>
			</trkpt>
			<trkpt lat="54.37052857875824" lon="10.114029288291931">
				<ele>0.0</ele>
				<time>2025-08-01T12:01:13Z</time>
			</trkpt>
			<trkpt lat="54.370577692985535" lon="10.113844752311707">
				<ele>-2.79998779296875</ele>
				<time>2025-08-01T12:10:45Z</time>
			</trkpt>
			<trkpt lat="54.37064802646637" lon="10.11344587802887">
				<ele>-2.20001220703125</ele>
				<time>2025-08-01T12:10:50Z</time>
			</trkpt>
			<trkpt lat="54.370712637901306" lon="10.112982392311096">
				<ele>-1.20001220703125</ele>
				<time>2025-08-01T12:11:00Z</time>
			</trkpt>
			<trkpt lat="54.37071776390076" lon="10.112945437431335">
				<ele>-1.399993896484375</ele>
				<time>2025-08-01T12:11:11Z</time>
			</trkpt>
			<trkpt lat="54.37220883369446" lon="10.09151291847229">
				<ele>-1.399993896484375</ele>
				<time>2025-08-01T12:11:13Z</time>
			</trkpt>
			<trkpt lat="54.372198939323425" lon="10.0914226770401">
				<ele>-4.600006103515625</ele>
				<time>2025-08-01T12:20:45Z</time>
			</trkpt>
			<trkpt lat="54.372177839279175" lon="10.091159582138062">
				<ele>-5.399993896484375</ele>
				<time>2025-08-01T12:20:47Z</time>
			</trkpt>
			<trkpt lat="54.372138142585754" lon="10.090797066688538">
				<ele>-2.600006103515625</ele>
				<time>2025-08-01T12:20:54Z</time>
			</trkpt>
			<trkpt lat="54.3721022605896" lon="10.090503811836243">
				<ele>-3.20001220703125</ele>
				<time>2025-08-01T12:21:04Z</time>
			</trkpt>
			<trkpt lat="54.36654043197632" lon="10.071603536605835">
				<ele>-2.399993896484375</ele>
				<time>2025-08-01T12:21:11Z</time>
			</trkpt>
			<trkpt lat="54.366504311561584" lon="10.071619629859924">
				<ele>4.600006103515625</ele>
				<time>2025-08-01T12:30:45Z</time>
			</trkpt>
			<trkpt lat="54.36636424064636" lon="10.071465253829956">
				<ele>-0.600006103515625</ele>
				<time>2025-08-01T12:30:47Z</time>
			</trkpt>
			<trkpt lat="54.36617970466614" lon="10.07104754447937">
				<ele>-3.399993896484375</ele>
				<time>2025-08-01T12:30:55Z</time>
			</trkpt>
			<trkpt lat="54.36612117290497" lon="10.070921063423157">
				<ele>-3.20001220703125</ele>
				<time>2025-08-01T12:31:08Z</time>
			</trkpt>
			<trkpt lat="54.36016619205475" lon="10.051384687423706">
				<ele>-3.0</ele>
				<time>2025-08-01T12:31:11Z</time>
			</trkpt>
			<trkpt lat="54.36020791530609" lon="10.051356554031372">
				<ele>-3.600006103515625</ele>
				<time>2025-08-01T12:40:48Z</time>
			</trkpt>
			<trkpt lat="54.360167026519775" lon="10.051038980484009">
				<ele>-10.600006103515625</ele>
				<time>2025-08-01T12:40:50Z</time>
			</trkpt>
			<trkpt lat="54.36015701293945" lon="10.050697922706604">
				<ele>0.399993896484375</ele>
				<time>2025-08-01T12:40:56Z</time>
			</trkpt>
			<trkpt lat="54.360151529312134" lon="10.05042850971222">
				<ele>-0.79998779296875</ele>
				<time>2025-08-01T12:41:05Z</time>
			</trkpt>
			<trkpt lat="54.36103940010071" lon="10.028289198875427">
				<ele>-0.20001220703125</ele>
				<time>2025-08-01T12:41:12Z</time>
			</trkpt>
			<trkpt lat="54.36103808879852" lon="10.028207540512085">
				<ele>28.5999755859375</ele>
				<time>2025-08-01T12:50:52Z</time>
			</trkpt>
			<trkpt lat="54.3610303401947" lon="10.027908325195312">
				<ele>2.20001220703125</ele>
				<time>2025-08-01T12:50:55Z</time>
			</trkpt>
			<trkpt lat="54.36099648475647" lon="10.02761697769165">
				<ele>0.600006103515625</ele>
				<time>2025-08-01T12:51:03Z</time>
			</trkpt>
			<trkpt lat="54.360992312431335" lon="10.027581572532654">
				<ele>-2.399993896484375</ele>
				<time>2025-08-01T12:51:11Z</time>
			</trkpt>
			<trkpt lat="54.35514760017395" lon="10.006468892097473">
				<ele>-2.399993896484375</ele>
				<time>2025-08-01T12:51:11Z</time>
			</trkpt>
			<trkpt lat="54.35514760017395" lon="10.006469011306763">
				<ele>-0.600006103515625</ele>
				<time>2025-08-01T13:01:51Z</time>
			</trkpt>
			<trkpt lat="54.34725725650787" lon="9.990830659866333">
				<ele>-0.600006103515625</ele>
				<time>2025-08-01T13:01:52Z</time>
			</trkpt>
			<trkpt lat="54.347204089164734" lon="9.990699052810669">
				<ele>-3.79998779296875</ele>
				<time>2025-08-01T13:10:45Z</time>
			</trkpt>
			<trkpt lat="54.34716606140137" lon="9.990401148796082">
				<ele>-4.20001220703125</ele>
				<time>2025-08-01T13:10:50Z</time>
			</trkpt>
			<trkpt lat="54.34706974029541" lon="9.990102410316467">
				<ele>-2.0</ele>
				<time>2025-08-01T13:10:59Z</time>
			</trkpt>
			<trkpt lat="54.34684777259827" lon="9.98943841457367">
				<ele>-2.20001220703125</ele>
				<time>2025-08-01T13:11:08Z</time>
			</trkpt>
			<trkpt lat="54.34683918952942" lon="9.989410996437073">
				<ele>-0.399993896484375</ele>
				<time>2025-08-01T13:11:29Z</time>
			</trkpt>
			<trkpt lat="54.34675991535187" lon="9.989164471626282">
				<ele>-1.600006103515625</ele>
				<time>2025-08-01T13:11:30Z</time>
			</trkpt>
			<trkpt lat="54.346656918525696" lon="9.988869071006775">
				<ele>-3.399993896484375</ele>
				<time>2025-08-01T13:11:38Z</time>
			</trkpt>
			<trkpt lat="54.34659552574158" lon="9.988709092140198">
				<ele>-1.79998779296875</ele>
				<time>2025-08-01T13:11:47Z</time>
			</trkpt>
			<trkpt lat="54.34332716464996" lon="9.969310283660889">
				<ele>-2.0</ele>
				<time>2025-08-01T13:11:51Z</time>
			</trkpt>
			<trkpt lat="54.34332084655762" lon="9.969267010688782">
				<ele>-12.399993896484375</ele>
				<time>2025-08-01T13:20:47Z</time>
			</trkpt>
			<trkpt lat="54.34328603744507" lon="9.96904182434082">
				<ele>-10.399993896484375</ele>
				<time>2025-08-01T13:20:49Z</time>
			</trkpt>
			<trkpt lat="54.34321939945221" lon="9.968774437904358">
				<ele>-6.600006103515625</ele>
				<time>2025-08-01T13:20:57Z</time>
			</trkpt>
			<trkpt lat="54.34311354160309" lon="9.968055367469788">
				<ele>-2.399993896484375</ele>
				<time>2025-08-01T13:21:05Z</time>
			</trkpt>
			<trkpt lat="54.343061566352844" lon="9.96780002117157">
				<ele>-9.0</ele>
				<time>2025-08-01T13:21:25Z</time>
			</trkpt>
			<trkpt lat="54.34296989440918" lon="9.967456698417664">
				<ele>-4.79998779296875</ele>
				<time>2025-08-01T13:21:31Z</time>
			</trkpt>
			<trkpt lat="54.342896461486816" lon="9.967095613479614">
				<ele>0.0</ele>
				<time>2025-08-01T13:21:40Z</time>
			</trkpt>
			<trkpt lat="54.342888593673706" lon="9.966977834701538">
				<ele>-0.79998779296875</ele>
				<time>2025-08-01T13:21:49Z</time>
			</trkpt>
			<trkpt lat="54.341182231903076" lon="9.945610761642456">
				<ele>-1.20001220703125</ele>
				<time>2025-08-01T13:21:51Z</time>
			</trkpt>
			<trkpt lat="54.341193079948425" lon="9.945586800575256">
				<ele>3.20001220703125</ele>
				<time>2025-08-01T13:30:45Z</time>
			</trkpt>
			<trkpt lat="54.34118854999542" lon="9.945363879203796">
				<ele>5.600006103515625</ele>
				<time>2025-08-01T13:30:46Z</time>
			</trkpt>
			<trkpt lat="54.341147899627686" lon="9.944924116134644">
				<ele>0.20001220703125</ele>
				<time>2025-08-01T13:30:52Z</time>
			</trkpt>
			<trkpt lat="54.34109807014465" lon="9.944548726081848">
				<ele>0.79998779296875</ele>
				<time>2025-08-01T13:31:02Z</time>
			</trkpt>
			<trkpt lat="54.34081840515137" lon="9.943390011787415">
				<ele>0.0</ele>
				<time>2025-08-01T13:31:11Z</time>
			</trkpt>
			<trkpt lat="54.34091114997864" lon="9.943630576133728">
				<ele>38.20001220703125</ele>
				<time>2025-08-01T13:31:25Z</time>
			</trkpt>
			<trkpt lat="54.34106242656708" lon="9.944022059440613">
				<ele>26.20001220703125</ele>
				<time>2025-08-01T13:31:26Z</time>
			</trkpt>
			<trkpt lat="54.3410404920578" lon="9.943904995918274">
				<ele>-16.20001220703125</ele>
				<time>2025-08-01T13:31:27Z</time>
			</trkpt>
			<trkpt lat="54.34098303318024" lon="9.943567752838135">
				<ele>-10.79998779296875</ele>
				<time>2025-08-01T13:31:29Z</time>
			</trkpt>
			<trkpt lat="54.340954303741455" lon="9.94310748577118">
				<ele>1.20001220703125</ele>
				<time>2025-08-01T13:31:35Z</time>
			</trkpt>
			<trkpt lat="54.3409423828125" lon="9.942804217338562">
				<ele>1.20001220703125</ele>
				<time>2025-08-01T13:31:45Z</time>
			</trkpt>
			<trkpt lat="54.34093773365021" lon="9.942717909812927">
				<ele>0.79998779296875</ele>
				<time>2025-08-01T13:31:51Z</time>
			</trkpt>
			<trkpt lat="54.34416592121124" lon="9.92093825340271">
				<ele>0.600006103515625</ele>
				<time>2025-08-01T13:31:54Z</time>
			</trkpt>
			<trkpt lat="54.34412634372711" lon="9.920849442481995">
				<ele>-7.79998779296875</ele>
				<time>2025-08-01T13:40:53Z</time>
			</trkpt>
			<trkpt lat="54.34427094459534" lon="9.92066740989685">
				<ele>-11.399993896484375</ele>
				<time>2025-08-01T13:40:55Z</time>
			</trkpt>
			<trkpt lat="54.34435200691223" lon="9.92042338848114">
				<ele>-7.79998779296875</ele>
				<time>2025-08-01T13:41:03Z</time>
			</trkpt>
			<trkpt lat="54.344568371772766" lon="9.919660091400146">
				<ele>-5.399993896484375</ele>
				<time>2025-08-01T13:41:09Z</time>
			</trkpt>
			<trkpt lat="54.34468352794647" lon="9.9195476770401">
				<ele>6.0</ele>
				<time>2025-08-01T13:41:31Z</time>
			</trkpt>
			<trkpt lat="54.34470272064209" lon="9.919306755065918">
				<ele>7.20001220703125</ele>
				<time>2025-08-01T13:41:33Z</time>
			</trkpt>
			<trkpt lat="54.34477090835571" lon="9.919001936912537">
				<ele>1.399993896484375</ele>
				<time>2025-08-01T13:41:39Z</time>
			</trkpt>
			<trkpt lat="54.344841957092285" lon="9.918798089027405">
				<ele>-2.20001220703125</ele>
				<time>2025-08-01T13:41:46Z</time>
			</trkpt>
			<trkpt lat="54.34485578536987" lon="9.918765902519226">
				<ele>-0.79998779296875</ele>
				<time>2025-08-01T13:41:51Z</time>
			</trkpt>
			<trkpt lat="54.35058617591858" lon="9.899628400802612">
				<ele>-0.600006103515625</ele>
				<time>2025-08-01T13:41:53Z</time>
			</trkpt>
			<trkpt lat="54.350735783576965" lon="9.899744987487793">
				<ele>-6.0</ele>
				<time>2025-08-01T13:50:45Z</time>
			</trkpt>
			<trkpt lat="54.35086643695831" lon="9.899530172348022">
				<ele>-8.79998779296875</ele>
				<time>2025-08-01T13:50:48Z</time>
			</trkpt>
			<trkpt lat="54.350966811180115" lon="9.899245977401733">
				<ele>-4.0</ele>
				<time>2025-08-01T13:50:56Z</time>
			</trkpt>
			<trkpt lat="54.35116386413574" lon="9.898555159568787">
				<ele>-3.20001220703125</ele>
				<time>2025-08-01T13:51:04Z</time>
			</trkpt>
			<trkpt lat="54.351247668266296" lon="9.898303627967834">
				<ele>-3.399993896484375</ele>
				<time>2025-08-01T13:51:25Z</time>
			</trkpt>
			<trkpt lat="54.35136926174164" lon="9.89807379245758">
				<ele>-7.79998779296875</ele>
				<time>2025-08-01T13:51:30Z</time>
			</trkpt>
			<trkpt lat="54.35149395465851" lon="9.897769570350647">
				<ele>-3.600006103515625</ele>
				<time>2025-08-01T13:51:37Z</time>
			</trkpt>
			<trkpt lat="54.35156762599945" lon="9.89756178855896">
				<ele>-3.20001220703125</ele>
				<time>2025-08-01T13:51:46Z</time>
			</trkpt>
			<trkpt lat="54.35837435722351" lon="9.877353072166443">
				<ele>-3.399993896484375</ele>
				<time>2025-08-01T13:51:51Z</time>
			</trkpt>
			<trkpt lat="54.3583744764328" lon="9.877341985702515">
				<ele>5.600006103515625</ele>
				<time>2025-08-01T14:01:25Z</time>
			</trkpt>
			<trkpt lat="54.35843205451965" lon="9.877130627632141">
				<ele>1.79998779296875</ele>
				<time>2025-08-01T14:01:26Z</time>
			</trkpt>
			<trkpt lat="54.35844421386719" lon="9.876956582069397">
				<ele>1.600006103515625</ele>
				<time>2025-08-01T14:01:32Z</time>
			</trkpt>
			<trkpt lat="54.358606815338135" lon="9.876473784446716">
				<ele>0.600006103515625</ele>
				<time>2025-08-01T14:01:38Z</time>
			</trkpt>
			<trkpt lat="54.358606815338135" lon="9.876473784446716">
				<ele>-1.399993896484375</ele>
				<time>2025-08-01T14:01:51Z</time>
			</trkpt>
			<trkpt lat="54.363651275634766" lon="9.855722904205322">
				<ele>-1.399993896484375</ele>
				<time>2025-08-01T14:01:52Z</time>
			</trkpt>
			<trkpt lat="54.36363673210144" lon="9.85560691356659">
				<ele>-2.20001220703125</ele>
				<time>2025-08-01T14:11:27Z</time>
			</trkpt>
			<trkpt lat="54.36372399330139" lon="9.85528576374054">
				<ele>-2.20001220703125</ele>
				<time>2025-08-01T14:11:31Z</time>
			</trkpt>
			<trkpt lat="54.36382532119751" lon="9.855003833770752">
				<ele>-2.399993896484375</ele>
				<time>2025-08-01T14:11:40Z</time>
			</trkpt>
			<trkpt lat="54.363879919052124" lon="9.854872822761536">
				<ele>-2.0</ele>
				<time>2025-08-01T14:11:48Z</time>
			</trkpt>
			<trkpt lat="54.3642019033432" lon="9.833205342292786">
				<ele>-1.600006103515625</ele>
				<time>2025-08-01T14:11:51Z</time>
			</trkpt>
			<trkpt lat="54.36427903175354" lon="9.833097219467163">
				<ele>1.600006103515625</ele>
				<time>2025-08-01T14:21:29Z</time>
			</trkpt>
			<trkpt lat="54.3642098903656" lon="9.832852840423584">
				<ele>12.0</ele>
				<time>2025-08-01T14:21:31Z</time>
			</trkpt>
			<trkpt lat="54.364203095436096" lon="9.832555890083313">
				<ele>1.20001220703125</ele>
				<time>2025-08-01T14:21:37Z</time>
			</trkpt>
			<trkpt lat="54.36419069766998" lon="9.832395911216736">
				<ele>-2.0</ele>
				<time>2025-08-01T14:21:47Z</time>
			</trkpt>
			<trkpt lat="54.36413061618805" lon="9.810598134994507">
				<ele>-2.0</ele>
				<time>2025-08-01T14:21:51Z</time>
			</trkpt>
			<trkpt lat="54.36409664154053" lon="9.810472130775452">
				<ele>3.399993896484375</ele>
				<time>2025-08-01T14:31:33Z</time>
			</trkpt>
			<trkpt lat="54.36394953727722" lon="9.81018877029419">
				<ele>6.0</ele>
				<time>2025-08-01T14:31:36Z</time>
			</trkpt>
			<trkpt lat="54.363959074020386" lon="9.809905052185059">
				<ele>-11.20001220703125</ele>
				<time>2025-08-01T14:31:43Z</time>
			</trkpt>
			<trkpt lat="54.36395740509033" lon="9.809872508049011">
				<ele>-9.0</ele>
				<time>2025-08-01T14:31:51Z</time>
			</trkpt>
			<trkpt lat="54.3609504699707" lon="9.788344979286194">
				<ele>-7.79998779296875</ele>
				<time>2025-08-01T14:31:51Z</time>
			</trkpt>
			<trkpt lat="54.36095416545868" lon="9.788270950317383">
				<ele>-26.79998779296875</ele>
				<time>2025-08-01T14:41:25Z</time>
			</trkpt>
			<trkpt lat="54.36079406738281" lon="9.787909150123596">
				<ele>-3.0</ele>
				<time>2025-08-01T14:41:28Z</time>
			</trkpt>
			<trkpt lat="54.36066555976868" lon="9.787508368492126">
				<ele>-0.79998779296875</ele>
				<time>2025-08-01T14:41:36Z</time>
			</trkpt>
			<trkpt lat="54.360602498054504" lon="9.787343621253967">
				<ele>-3.399993896484375</ele>
				<time>2025-08-01T14:41:47Z</time>
			</trkpt>
			<trkpt lat="54.352320313453674" lon="9.76905071735382">
				<ele>-3.600006103515625</ele>
				<time>2025-08-01T14:41:52Z</time>
			</trkpt>
			<trkpt lat="54.352227091789246" lon="9.768933176994324">
				<ele>5.0</ele>
				<time>2025-08-01T14:51:26Z</time>
			</trkpt>
			<trkpt lat="54.352078914642334" lon="9.768693208694458">
				<ele>-4.79998779296875</ele>
				<time>2025-08-01T14:51:29Z</time>
			</trkpt>
			<trkpt lat="54.35191822052002" lon="9.768403053283691">
				<ele>-1.0</ele>
				<time>2025-08-01T14:51:38Z</time>
			</trkpt>
			<trkpt lat="54.35186994075775" lon="9.768311977386475">
				<ele>-4.79998779296875</ele>
				<time>2025-08-01T14:51:49Z</time>
			</trkpt>
			<trkpt lat="54.34282624721527" lon="9.75093388557434">
				<ele>-4.600006103515625</ele>
				<time>2025-08-01T14:51:51Z</time>
			</trkpt>
			<trkpt lat="54.3427768945694" lon="9.750840306282043">
				<ele>10.399993896484375</ele>
				<time>2025-08-01T15:01:31Z</time>
			</trkpt>
			<trkpt lat="54.34261083602905" lon="9.750498056411743">
				<ele>-0.399993896484375</ele>
				<time>2025-08-01T15:01:37Z</time>
			</trkpt>
			<trkpt lat="54.34254431724548" lon="9.75037133693695">
				<ele>-4.20001220703125</ele>
				<time>2025-08-01T15:01:48Z</time>
			</trkpt>
			<trkpt lat="54.33405375480652" lon="9.733114361763">
				<ele>-3.79998779296875</ele>
				<time>2025-08-01T15:01:51Z</time>
			</trkpt>
			<trkpt lat="54.33400368690491" lon="9.733005285263062">
				<ele>-5.79998779296875</ele>
				<time>2025-08-01T15:11:26Z</time>
			</trkpt>
			<trkpt lat="54.33388602733612" lon="9.732828974723816">
				<ele>-7.399993896484375</ele>
				<time>2025-08-01T15:11:29Z</time>
			</trkpt>
			<trkpt lat="54.33377730846405" lon="9.732599973678589">
				<ele>-4.600006103515625</ele>
				<time>2025-08-01T15:11:35Z</time>
			</trkpt>
			<trkpt lat="54.33362555503845" lon="9.732308745384216">
				<ele>-3.600006103515625</ele>
				<time>2025-08-01T15:11:42Z</time>
			</trkpt>
			<trkpt lat="54.33362555503845" lon="9.732308745384216">
				<ele>-4.79998779296875</ele>
				<time>2025-08-01T15:11:51Z</time>
			</trkpt>
			<trkpt lat="54.324636459350586" lon="9.716219902038574">
				<ele>-4.79998779296875</ele>
				<time>2025-08-01T15:11:52Z</time>
			</trkpt>
			<trkpt lat="54.324572682380676" lon="9.716174960136414">
				<ele>-2.600006103515625</ele>
				<time>2025-08-01T15:21:25Z</time>
			</trkpt>
			<trkpt lat="54.324538230895996" lon="9.716094255447388">
				<ele>-8.20001220703125</ele>
				<time>2025-08-01T15:21:26Z</time>
			</trkpt>
			<trkpt lat="54.324326157569885" lon="9.715985655784607">
				<ele>4.600006103515625</ele>
				<time>2025-08-01T15:21:30Z</time>
			</trkpt>
			<trkpt lat="54.32410967350006" lon="9.715798377990723">
				<ele>-2.399993896484375</ele>
				<time>2025-08-01T15:21:40Z</time>
			</trkpt>
			<trkpt lat="54.32408952713013" lon="9.715776324272156">
				<ele>-5.0</ele>
				<time>2025-08-01T15:21:51Z</time>
			</trkpt>
			<trkpt lat="54.312724232673645" lon="9.70470380783081">
				<ele>-4.79998779296875</ele>
				<time>2025-08-01T15:21:51Z</time>
			</trkpt>
			<trkpt lat="54.31274163722992" lon="9.704640507698059">
				<ele>17.5999755859375</ele>
				<time>2025-08-01T15:31:32Z</time>
			</trkpt>
			<trkpt lat="54.31275749206543" lon="9.704394102096558">
				<ele>6.399993896484375</ele>
				<time>2025-08-01T15:31:35Z</time>
			</trkpt>
			<trkpt lat="54.31271040439606" lon="9.704047083854675">
				<ele>-3.600006103515625</ele>
				<time>2025-08-01T15:31:42Z</time>
			</trkpt>
			<trkpt lat="54.312708616256714" lon="9.704013228416443">
				<ele>-4.399993896484375</ele>
				<time>2025-08-01T15:31:51Z</time>
			</trkpt>
			<trkpt lat="54.30954611301422" lon="9.681861758232117">
				<ele>-5.20001220703125</ele>
				<time>2025-08-01T15:31:51Z</time>
			</trkpt>
			<trkpt lat="54.3096729516983" lon="9.681777238845825">
				<ele>19.4000244140625</ele>
				<time>2025-08-01T15:41:26Z</time>
			</trkpt>
			<trkpt lat="54.3096706867218" lon="9.681529641151428">
				<ele>-1.79998779296875</ele>
				<time>2025-08-01T15:41:29Z</time>
			</trkpt>
			<trkpt lat="54.309643507003784" lon="9.681191325187683">
				<ele>-3.0</ele>
				<time>2025-08-01T15:41:35Z</time>
			</trkpt>
			<trkpt lat="54.309603571891785" lon="9.680882453918457">
				<ele>-3.0</ele>
				<time>2025-08-01T15:41:44Z</time>
			</trkpt>
			<trkpt lat="54.30644869804382" lon="9.669751048088074">
				<ele>-3.79998779296875</ele>
				<time>2025-08-01T15:41:51Z</time>
			</trkpt>
			<trkpt lat="54.30654573440552" lon="9.6699059009552">
				<ele>0.0</ele>
				<time>2025-08-01T15:51:27Z</time>
			</trkpt>
			<trkpt lat="54.306634068489075" lon="9.6699800491333">
				<ele>-1.20001220703125</ele>
				<time>2025-08-01T15:51:35Z</time>
			</trkpt>
			<trkpt lat="54.30673432350159" lon="9.670015931129456">
				<ele>-1.79998779296875</ele>
				<time>2025-08-01T15:51:42Z</time>
			</trkpt>
			<trkpt lat="54.30675911903381" lon="9.67001748085022">
				<ele>-3.399993896484375</ele>
				<time>2025-08-01T15:51:50Z</time>
			</trkpt>
		</trkseg>
	</trk>
</gpx>
