<?xml version="1.0" encoding="utf-8"?>
<gpx creator="Garmin Explore App" version="1.1" xmlns:adv="http://www.garmin.com/xmlschemas/AdventuresExtensions/v1" xmlns:gpxtpx="http://www.garmin.com/xmlschemas/TrackPointExtension/v1" xmlns:gpxtrx="http://www.garmin.com/xmlschemas/GpxExtensions/v3" xmlns:gpxx="http://www.garmin.com/xmlschemas/GpxExtensions/v3" xmlns:trp="http://www.garmin.com/xmlschemas/TripExtensions/v1" xmlns:wptx1="http://www.garmin.com/xmlschemas/WaypointExtension/v1" xmlns:xsi="http://www.w3.org/2001/XMLSchema-instance" xmlns="http://www.topografix.com/GPX/1/1" xsi:schemaLocation="http://www.topografix.com/GPX/1/1 http://www.topografix.com/GPX/1/1/gpx.xsd http://www.garmin.com/xmlschemas/WaypointExtension/v1 http://www8.garmin.com/xmlschemas/WaypointExtensionv1.xsd http://www.garmin.com/xmlschemas/TrackPointExtension/v1 http://www.garmin.com/xmlschemas/TrackPointExtensionv1.xsd http://www.garmin.com/xmlschemas/GpxExtensions/v3 http://www8.garmin.com/xmlschemas/GpxExtensionsv3.xsd http://www.garmin.com/xmlschemas/ActivityExtension/v1 http://www8.garmin.com/xmlschemas/ActivityExtensionv1.xsd http://www.garmin.com/xmlschemas/AdventuresExtensions/v1 http://www8.garmin.com/xmlschemas/AdventuresExtensionv1.xsd http://www.garmin.com/xmlschemas/PressureExtension/v1 http://www.garmin.com/xmlschemas/PressureExtensionv1.xsd">
	<metadata>
		<name>2025-08-11 07:49:08</name>
		<link href="http://www.garmin.com">
			<text>Garmin International</text>
		</link>
		<time>2025-08-11T14:00:27Z</time>
	</metadata>
	<trk>
		<name>2025-08-11 07:49:08</name>
		<extensions>
			<gpxx:TrackExtension>
				<gpxx:DisplayColor>DarkMagenta</gpxx:DisplayColor>
			</gpxx:TrackExtension>
		</extensions>
		<trkseg>
			<trkpt lat="53.40890848636627" lon="6.199564099311829">
				<ele>9.999999562023526e+24</ele>
				<time>2025-08-11T05:49:08Z</time>
			</trkpt>
			<trkpt lat="53.408973932266235" lon="6.199639678001404">
				<ele>46.20001220703125</ele>
				<time>2025-08-11T05:49:13Z</time>
			</trkpt>
			<trkpt lat="53.40887248516083" lon="6.199760556221008">
				<ele>47.20001220703125</ele>
				<time>2025-08-11T05:49:22Z</time>
			</trkpt>
			<trkpt lat="53.409305572509766" lon="6.197276949882507">
				<ele>39.5999755859375</ele>
				<time>2025-08-11T05:49:33Z</time>
			</trkpt>
			<trkpt lat="53.409518241882324" lon="6.19747793674469">
				<ele>17.5999755859375</ele>
				<time>2025-08-11T05:58:48Z</time>
			</trkpt>
			<trkpt lat="53.409785747528076" lon="6.1978172063827515">
				<ele>22.5999755859375</ele>
				<time>2025-08-11T05:58:52Z</time>
			</trkpt>
			<trkpt lat="53.40975308418274" lon="6.197737455368042">
				<ele>36.0</ele>
				<time>2025-08-11T05:59:00Z</time>
			</trkpt>
			<trkpt lat="53.407793045043945" lon="6.195623278617859">
				<ele>35.4000244140625</ele>
				<time>2025-08-11T05:59:12Z</time>
			</trkpt>
			<trkpt lat="53.40773153305054" lon="6.195747256278992">
				<ele>8.20001220703125</ele>
				<time>2025-08-11T06:08:48Z</time>
			</trkpt>
			<trkpt lat="53.407585859298706" lon="6.195699453353882">
				<ele>34.5999755859375</ele>
				<time>2025-08-11T06:08:54Z</time>
			</trkpt>
			<trkpt lat="53.40746819972992" lon="6.195576190948486">
				<ele>27.5999755859375</ele>
				<time>2025-08-11T06:09:03Z</time>
			</trkpt>
			<trkpt lat="53.40626275539398" lon="6.2068190574646">
				<ele>23.20001220703125</ele>
				<time>2025-08-11T06:09:12Z</time>
			</trkpt>
			<trkpt lat="53.40616548061371" lon="6.2069700956344604">
				<ele>28.4000244140625</ele>
				<time>2025-08-11T06:18:52Z</time>
			</trkpt>
			<trkpt lat="53.4060674905777" lon="6.2069411277771">
				<ele>26.0</ele>
				<time>2025-08-11T06:19:03Z</time>
			</trkpt>
			<trkpt lat="53.405296206474304" lon="6.207880854606628">
				<ele>18.4000244140625</ele>
				<time>2025-08-11T06:19:13Z</time>
			</trkpt>
			<trkpt lat="53.4058393239975" lon="6.207325220108032">
				<ele>1.20001220703125</ele>
				<time>2025-08-11T06:28:54Z</time>
			</trkpt>
			<trkpt lat="53.40517497062683" lon="6.207713723182678">
				<ele>66.0</ele>
				<time>2025-08-11T06:28:58Z</time>
			</trkpt>
			<trkpt lat="53.40523910522461" lon="6.207688331604004">
				<ele>7.0</ele>
				<time>2025-08-11T06:29:01Z</time>
			</trkpt>
			<trkpt lat="53.40502226352692" lon="6.207778573036194">
				<ele>15.4000244140625</ele>
				<time>2025-08-11T06:29:03Z</time>
			</trkpt>
			<trkpt lat="53.405791878700256" lon="6.207627654075623">
				<ele>-22.0</ele>
				<time>2025-08-11T06:29:13Z</time>
			</trkpt>
			<trkpt lat="53.405778884887695" lon="6.207473397254944">
				<ele>64.0</ele>
				<time>2025-08-11T06:33:48Z</time>
			</trkpt>
			<trkpt lat="53.405773282051086" lon="6.207534193992615">
				<ele>71.20001220703125</ele>
				<time>2025-08-11T06:33:59Z</time>
			</trkpt>
			<trkpt lat="53.40516710281372" lon="6.208500266075134">
				<ele>58.79998779296875</ele>
				<time>2025-08-11T06:34:10Z</time>
			</trkpt>
			<trkpt lat="53.405845046043396" lon="6.207343101501465">
				<ele>-18.399993896484375</ele>
				<time>2025-08-11T06:38:48Z</time>
			</trkpt>
			<trkpt lat="53.405789852142334" lon="6.20756733417511">
				<ele>52.0</ele>
				<time>2025-08-11T06:38:52Z</time>
			</trkpt>
			<trkpt lat="53.40582573413849" lon="6.20758056640625">
				<ele>57.4000244140625</ele>
				<time>2025-08-11T06:39:02Z</time>
			</trkpt>
			<trkpt lat="53.405831694602966" lon="6.207571506500244">
				<ele>64.20001220703125</ele>
				<time>2025-08-11T06:39:13Z</time>
			</trkpt>
			<trkpt lat="53.40650808811188" lon="6.20539116859436">
				<ele>64.79998779296875</ele>
				<time>2025-08-11T06:39:14Z</time>
			</trkpt>
			<trkpt lat="53.406508803367615" lon="6.205396413803101">
				<ele>72.5999755859375</ele>
				<time>2025-08-11T06:48:49Z</time>
			</trkpt>
			<trkpt lat="53.40644145011902" lon="6.205112934112549">
				<ele>74.79998779296875</ele>
				<time>2025-08-11T06:48:52Z</time>
			</trkpt>
			<trkpt lat="53.40641987323761" lon="6.204790115356445">
				<ele>46.0</ele>
				<time>2025-08-11T06:49:03Z</time>
			</trkpt>
			<trkpt lat="53.40500223636627" lon="6.184467554092407">
				<ele>45.5999755859375</ele>
				<time>2025-08-11T06:49:13Z</time>
			</trkpt>
			<trkpt lat="53.404937505722046" lon="6.183687448501587">
				<ele>83.79998779296875</ele>
				<time>2025-08-11T06:58:48Z</time>
			</trkpt>
			<trkpt lat="53.404956221580505" lon="6.183476448059082">
				<ele>68.0</ele>
				<time>2025-08-11T06:58:49Z</time>
			</trkpt>
			<trkpt lat="53.4049346446991" lon="6.183241367340088">
				<ele>53.5999755859375</ele>
				<time>2025-08-11T06:58:55Z</time>
			</trkpt>
			<trkpt lat="53.40497541427612" lon="6.182826042175293">
				<ele>56.0</ele>
				<time>2025-08-11T06:59:05Z</time>
			</trkpt>
			<trkpt lat="53.39452004432678" lon="6.172131299972534">
				<ele>54.79998779296875</ele>
				<time>2025-08-11T06:59:14Z</time>
			</trkpt>
			<trkpt lat="53.39429593086243" lon="6.172320604324341">
				<ele>62.4000244140625</ele>
				<time>2025-08-11T07:08:49Z</time>
			</trkpt>
			<trkpt lat="53.394052028656006" lon="6.172346830368042">
				<ele>60.4000244140625</ele>
				<time>2025-08-11T07:08:59Z</time>
			</trkpt>
			<trkpt lat="53.3939129114151" lon="6.172366738319397">
				<ele>63.20001220703125</ele>
				<time>2025-08-11T07:09:09Z</time>
			</trkpt>
			<trkpt lat="53.381933093070984" lon="6.17843222618103">
				<ele>63.5999755859375</ele>
				<time>2025-08-11T07:09:14Z</time>
			</trkpt>
			<trkpt lat="53.38170850276947" lon="6.178849935531616">
				<ele>46.79998779296875</ele>
				<time>2025-08-11T07:18:49Z</time>
			</trkpt>
			<trkpt lat="53.381537079811096" lon="6.17894721031189">
				<ele>67.79998779296875</ele>
				<time>2025-08-11T07:18:53Z</time>
			</trkpt>
			<trkpt lat="53.38131606578827" lon="6.179039835929871">
				<ele>65.79998779296875</ele>
				<time>2025-08-11T07:19:01Z</time>
			</trkpt>
			<trkpt lat="53.3812495470047" lon="6.179063200950623">
				<ele>68.0</ele>
				<time>2025-08-11T07:19:11Z</time>
			</trkpt>
			<trkpt lat="53.368908166885376" lon="6.179038166999817">
				<ele>68.5999755859375</ele>
				<time>2025-08-11T07:19:13Z</time>
			</trkpt>
			<trkpt lat="53.368876338005066" lon="6.179055571556091">
				<ele>79.20001220703125</ele>
				<time>2025-08-11T07:28:49Z</time>
			</trkpt>
			<trkpt lat="53.36870074272156" lon="6.179419279098511">
				<ele>60.0</ele>
				<time>2025-08-11T07:28:52Z</time>
			</trkpt>
			<trkpt lat="53.36855685710907" lon="6.1796499490737915">
				<ele>54.4000244140625</ele>
				<time>2025-08-11T07:28:59Z</time>
			</trkpt>
			<trkpt lat="53.36842596530914" lon="6.1798319816589355">
				<ele>59.0</ele>
				<time>2025-08-11T07:29:07Z</time>
			</trkpt>
			<trkpt lat="53.3612185716629" lon="6.198322296142578">
				<ele>60.4000244140625</ele>
				<time>2025-08-11T07:29:13Z</time>
			</trkpt>
			<trkpt lat="53.361252665519714" lon="6.198354482650757">
				<ele>35.0</ele>
				<time>2025-08-11T07:38:49Z</time>
			</trkpt>
			<trkpt lat="53.36100888252258" lon="6.1984347105026245">
				<ele>40.5999755859375</ele>
				<time>2025-08-11T07:38:50Z</time>
			</trkpt>
			<trkpt lat="53.360963106155396" lon="6.198713302612305">
				<ele>17.4000244140625</ele>
				<time>2025-08-11T07:38:57Z</time>
			</trkpt>
			<trkpt lat="53.36089599132538" lon="6.199085116386414">
				<ele>19.5999755859375</ele>
				<time>2025-08-11T07:39:04Z</time>
			</trkpt>
			<trkpt lat="53.36088979244232" lon="6.199119687080383">
				<ele>21.20001220703125</ele>
				<time>2025-08-11T07:39:13Z</time>
			</trkpt>
			<trkpt lat="53.35696578025818" lon="6.2209261655807495">
				<ele>21.20001220703125</ele>
				<time>2025-08-11T07:39:13Z</time>
			</trkpt>
			<trkpt lat="53.356940269470215" lon="6.220938205718994">
				<ele>8.79998779296875</ele>
				<time>2025-08-11T07:48:49Z</time>
			</trkpt>
			<trkpt lat="53.356858253479004" lon="6.221201658248901">
				<ele>14.4000244140625</ele>
				<time>2025-08-11T07:48:56Z</time>
			</trkpt>
			<trkpt lat="53.356714487075806" lon="6.22156834602356">
				<ele>15.4000244140625</ele>
				<time>2025-08-11T07:49:03Z</time>
			</trkpt>
			<trkpt lat="53.356714487075806" lon="6.22156834602356">
				<ele>19.0</ele>
				<time>2025-08-11T07:49:13Z</time>
			</trkpt>
			<trkpt lat="53.344926834106445" lon="6.231096148490906">
				<ele>18.79998779296875</ele>
				<time>2025-08-11T07:49:14Z</time>
			</trkpt>
			<trkpt lat="53.34457564353943" lon="6.231046080589294">
				<ele>46.4000244140625</ele>
				<time>2025-08-11T07:58:48Z</time>
			</trkpt>
			<trkpt lat="53.344427824020386" lon="6.230901598930359">
				<ele>9.20001220703125</ele>
				<time>2025-08-11T07:58:53Z</time>
			</trkpt>
			<trkpt lat="53.34430503845215" lon="6.231013774871826">
				<ele>9.0</ele>
				<time>2025-08-11T07:59:01Z</time>
			</trkpt>
			<trkpt lat="53.344199895858765" lon="6.231136679649353">
				<ele>8.399993896484375</ele>
				<time>2025-08-11T07:59:08Z</time>
			</trkpt>
			<trkpt lat="53.34835755825043" lon="6.250046610832214">
				<ele>8.600006103515625</ele>
				<time>2025-08-11T07:59:13Z</time>
			</trkpt>
			<trkpt lat="53.34833586215973" lon="6.25014054775238">
				<ele>46.20001220703125</ele>
				<time>2025-08-11T08:08:51Z</time>
			</trkpt>
			<trkpt lat="53.34814536571503" lon="6.250377058982849">
				<ele>27.20001220703125</ele>
				<time>2025-08-11T08:08:53Z</time>
			</trkpt>
			<trkpt lat="53.34816086292267" lon="6.25050675868988">
				<ele>13.0</ele>
				<time>2025-08-11T08:09:02Z</time>
			</trkpt>
			<trkpt lat="53.34818494319916" lon="6.250641107559204">
				<ele>11.600006103515625</ele>
				<time>2025-08-11T08:09:09Z</time>
			</trkpt>
			<trkpt lat="53.345828890800476" lon="6.271566987037659">
				<ele>11.20001220703125</ele>
				<time>2025-08-11T08:09:13Z</time>
			</trkpt>
			<trkpt lat="53.34562849998474" lon="6.271499872207642">
				<ele>-54.600006103515625</ele>
				<time>2025-08-11T08:18:53Z</time>
			</trkpt>
			<trkpt lat="53.3455570936203" lon="6.271694779396057">
				<ele>-7.399993896484375</ele>
				<time>2025-08-11T08:19:02Z</time>
			</trkpt>
			<trkpt lat="53.34553134441376" lon="6.2718141078948975">
				<ele>-2.79998779296875</ele>
				<time>2025-08-11T08:19:10Z</time>
			</trkpt>
			<trkpt lat="53.34073233604431" lon="6.290686011314392">
				<ele>-2.20001220703125</ele>
				<time>2025-08-11T08:19:13Z</time>
			</trkpt>
			<trkpt lat="53.34031438827515" lon="6.290568113327026">
				<ele>15.20001220703125</ele>
				<time>2025-08-11T08:28:48Z</time>
			</trkpt>
			<trkpt lat="53.34018337726593" lon="6.290624499320984">
				<ele>-8.399993896484375</ele>
				<time>2025-08-11T08:28:53Z</time>
			</trkpt>
			<trkpt lat="53.34005689620972" lon="6.2908114194869995">
				<ele>-3.20001220703125</ele>
				<time>2025-08-11T08:28:59Z</time>
			</trkpt>
			<trkpt lat="53.33997118473053" lon="6.290972828865051">
				<ele>-0.399993896484375</ele>
				<time>2025-08-11T08:29:08Z</time>
			</trkpt>
			<trkpt lat="53.33557915687561" lon="6.300502061843872">
				<ele>0.20001220703125</ele>
				<time>2025-08-11T08:29:13Z</time>
			</trkpt>
			<trkpt lat="53.3355553150177" lon="6.300541639328003">
				<ele>-7.0</ele>
				<time>2025-08-11T08:38:56Z</time>
			</trkpt>
			<trkpt lat="53.33541774749756" lon="6.3007954359054565">
				<ele>-8.0</ele>
				<time>2025-08-11T08:38:58Z</time>
			</trkpt>
			<trkpt lat="53.33530354499817" lon="6.30099892616272">
				<ele>-6.79998779296875</ele>
				<time>2025-08-11T08:39:07Z</time>
			</trkpt>
			<trkpt lat="53.325249552726746" lon="6.315395712852478">
				<ele>-5.0</ele>
				<time>2025-08-11T08:39:13Z</time>
			</trkpt>
			<trkpt lat="53.32525670528412" lon="6.315474987030029">
				<ele>-31.20001220703125</ele>
				<time>2025-08-11T08:48:55Z</time>
			</trkpt>
			<trkpt lat="53.325106739997864" lon="6.3156410455703735">
				<ele>-20.0</ele>
				<time>2025-08-11T08:48:56Z</time>
			</trkpt>
			<trkpt lat="53.3249272108078" lon="6.315726161003113">
				<ele>-10.0</ele>
				<time>2025-08-11T08:49:06Z</time>
			</trkpt>
			<trkpt lat="53.31674134731293" lon="6.323608040809631">
				<ele>-5.79998779296875</ele>
				<time>2025-08-11T08:49:13Z</time>
			</trkpt>
			<trkpt lat="53.31671214103699" lon="6.323752999305725">
				<ele>-72.20001220703125</ele>
				<time>2025-08-11T08:59:03Z</time>
			</trkpt>
			<trkpt lat="53.316694498062134" lon="6.324036002159119">
				<ele>-80.60000610351562</ele>
				<time>2025-08-11T08:59:10Z</time>
			</trkpt>
			<trkpt lat="53.318968772888184" lon="6.337089419364929">
				<ele>-90.39999389648438</ele>
				<time>2025-08-11T08:59:15Z</time>
			</trkpt>
			<trkpt lat="53.318968772888184" lon="6.337089419364929">
				<ele>-137.20001220703125</ele>
				<time>2025-08-11T09:09:47Z</time>
			</trkpt>
			<trkpt lat="53.318968772888184" lon="6.337089419364929">
				<ele>-137.20001220703125</ele>
				<time>2025-08-11T09:09:48Z</time>
			</trkpt>
			<trkpt lat="53.314738392829895" lon="6.354589223861694">
				<ele>-137.20001220703125</ele>
				<time>2025-08-11T09:09:49Z</time>
			</trkpt>
			<trkpt lat="53.3147292137146" lon="6.354661822319031">
				<ele>5.79998779296875</ele>
				<time>2025-08-11T09:19:05Z</time>
			</trkpt>
			<trkpt lat="53.31470274925232" lon="6.354922771453857">
				<ele>7.20001220703125</ele>
				<time>2025-08-11T09:19:07Z</time>
			</trkpt>
			<trkpt lat="53.31476378440857" lon="6.3549898862838745">
				<ele>7.600006103515625</ele>
				<time>2025-08-11T09:19:15Z</time>
			</trkpt>
			<trkpt lat="53.31469643115997" lon="6.355352520942688">
				<ele>-24.20001220703125</ele>
				<time>2025-08-11T09:19:33Z</time>
			</trkpt>
			<trkpt lat="53.314658403396606" lon="6.355613470077515">
				<ele>-11.399993896484375</ele>
				<time>2025-08-11T09:19:41Z</time>
			</trkpt>
			<trkpt lat="53.32160472869873" lon="6.3681803941726685">
				<ele>-4.0</ele>
				<time>2025-08-11T09:19:47Z</time>
			</trkpt>
			<trkpt lat="53.32151138782501" lon="6.368722677230835">
				<ele>-27.79998779296875</ele>
				<time>2025-08-11T09:28:49Z</time>
			</trkpt>
			<trkpt lat="53.32149028778076" lon="6.368886351585388">
				<ele>-10.79998779296875</ele>
				<time>2025-08-11T09:28:56Z</time>
			</trkpt>
			<trkpt lat="53.32144093513489" lon="6.36930251121521">
				<ele>-9.79998779296875</ele>
				<time>2025-08-11T09:29:00Z</time>
			</trkpt>
			<trkpt lat="53.32127523422241" lon="6.370191931724548">
				<ele>-7.79998779296875</ele>
				<time>2025-08-11T09:29:10Z</time>
			</trkpt>
			<trkpt lat="53.32129395008087" lon="6.370142936706543">
				<ele>-12.20001220703125</ele>
				<time>2025-08-11T09:29:29Z</time>
			</trkpt>
			<trkpt lat="53.32121789455414" lon="6.370532751083374">
				<ele>-11.20001220703125</ele>
				<time>2025-08-11T09:29:32Z</time>
			</trkpt>
			<trkpt lat="53.32118630409241" lon="6.3707115650177">
				<ele>-7.399993896484375</ele>
				<time>2025-08-11T09:29:43Z</time>
			</trkpt>
			<trkpt lat="53.319950222969055" lon="6.3909677267074585">
				<ele>-6.20001220703125</ele>
				<time>2025-08-11T09:29:47Z</time>
			</trkpt>
			<trkpt lat="53.31987118721008" lon="6.39117693901062">
				<ele>-1.0</ele>
				<time>2025-08-11T09:38:50Z</time>
			</trkpt>
			<trkpt lat="53.319841623306274" lon="6.391490697860718">
				<ele>-4.79998779296875</ele>
				<time>2025-08-11T09:38:53Z</time>
			</trkpt>
			<trkpt lat="53.31981909275055" lon="6.391719460487366">
				<ele>-3.0</ele>
				<time>2025-08-11T09:39:01Z</time>
			</trkpt>
			<trkpt lat="53.319741010665894" lon="6.392441749572754">
				<ele>-3.20001220703125</ele>
				<time>2025-08-11T09:39:07Z</time>
			</trkpt>
			<trkpt lat="53.319705843925476" lon="6.392756819725037">
				<ele>-3.20001220703125</ele>
				<time>2025-08-11T09:39:28Z</time>
			</trkpt>
			<trkpt lat="53.319658041000366" lon="6.39319384098053">
				<ele>-4.20001220703125</ele>
				<time>2025-08-11T09:39:36Z</time>
			</trkpt>
			<trkpt lat="53.319658041000366" lon="6.39319384098053">
				<ele>-3.79998779296875</ele>
				<time>2025-08-11T09:39:47Z</time>
			</trkpt>
			<trkpt lat="53.323903918266296" lon="6.411505222320557">
				<ele>-3.79998779296875</ele>
				<time>2025-08-11T09:39:48Z</time>
			</trkpt>
			<trkpt lat="53.32399344444275" lon="6.411827921867371">
				<ele>-11.79998779296875</ele>
				<time>2025-08-11T09:49:16Z</time>
			</trkpt>
			<trkpt lat="53.3240065574646" lon="6.411839127540588">
				<ele>-20.79998779296875</ele>
				<time>2025-08-11T09:49:24Z</time>
			</trkpt>
			<trkpt lat="53.32427704334259" lon="6.411770939826965">
				<ele>-21.20001220703125</ele>
				<time>2025-08-11T09:49:25Z</time>
			</trkpt>
			<trkpt lat="53.32457745075226" lon="6.411938309669495">
				<ele>-7.600006103515625</ele>
				<time>2025-08-11T09:49:34Z</time>
			</trkpt>
			<trkpt lat="53.32462418079376" lon="6.411963224411011">
				<ele>0.600006103515625</ele>
				<time>2025-08-11T09:49:46Z</time>
			</trkpt>
			<trkpt lat="53.326937198638916" lon="6.424614906311035">
				<ele>1.0</ele>
				<time>2025-08-11T09:49:47Z</time>
			</trkpt>
			<trkpt lat="53.32704484462738" lon="6.424200773239136">
				<ele>20.4000244140625</ele>
				<time>2025-08-11T09:58:51Z</time>
			</trkpt>
			<trkpt lat="53.32709836959839" lon="6.424181580543518">
				<ele>-2.79998779296875</ele>
				<time>2025-08-11T09:58:53Z</time>
			</trkpt>
			<trkpt lat="53.327085852622986" lon="6.425918698310852">
				<ele>-4.399993896484375</ele>
				<time>2025-08-11T09:59:04Z</time>
			</trkpt>
			<trkpt lat="53.32711124420166" lon="6.425957202911377">
				<ele>111.79998779296875</ele>
				<time>2025-08-11T09:59:28Z</time>
			</trkpt>
			<trkpt lat="53.3271427154541" lon="6.4243186712265015">
				<ele>117.4000244140625</ele>
				<time>2025-08-11T09:59:30Z</time>
			</trkpt>
			<trkpt lat="53.32715094089508" lon="6.424324154853821">
				<ele>-2.399993896484375</ele>
				<time>2025-08-11T09:59:43Z</time>
			</trkpt>
			<trkpt lat="53.3227995634079" lon="6.43699324131012">
				<ele>-2.399993896484375</ele>
				<time>2025-08-11T09:59:47Z</time>
			</trkpt>
			<trkpt lat="53.32268941402435" lon="6.436959624290466">
				<ele>-7.20001220703125</ele>
				<time>2025-08-11T10:09:26Z</time>
			</trkpt>
			<trkpt lat="53.32277476787567" lon="6.436757683753967">
				<ele>-14.0</ele>
				<time>2025-08-11T10:09:32Z</time>
			</trkpt>
			<trkpt lat="53.3226238489151" lon="6.436781406402588">
				<ele>-2.399993896484375</ele>
				<time>2025-08-11T10:09:38Z</time>
			</trkpt>
			<trkpt lat="53.32260549068451" lon="6.436791300773621">
				<ele>-1.600006103515625</ele>
				<time>2025-08-11T10:09:47Z</time>
			</trkpt>
			<trkpt lat="53.32062590122223" lon="6.447842717170715">
				<ele>-1.600006103515625</ele>
				<time>2025-08-11T10:09:47Z</time>
			</trkpt>
			<trkpt lat="53.320631980895996" lon="6.447813153266907">
				<ele>28.79998779296875</ele>
				<time>2025-08-11T10:19:25Z</time>
			</trkpt>
			<trkpt lat="53.32071506977081" lon="6.44791042804718">
				<ele>28.5999755859375</ele>
				<time>2025-08-11T10:19:26Z</time>
			</trkpt>
			<trkpt lat="53.32085573673248" lon="6.448156237602234">
				<ele>11.79998779296875</ele>
				<time>2025-08-11T10:19:34Z</time>
			</trkpt>
			<trkpt lat="53.32091546058655" lon="6.448276519775391">
				<ele>2.600006103515625</ele>
				<time>2025-08-11T10:19:43Z</time>
			</trkpt>
			<trkpt lat="53.328834652900696" lon="6.4560219049453735">
				<ele>1.600006103515625</ele>
				<time>2025-08-11T10:19:46Z</time>
			</trkpt>
			<trkpt lat="53.3288596868515" lon="6.456165075302124">
				<ele>10.20001220703125</ele>
				<time>2025-08-11T10:29:23Z</time>
			</trkpt>
			<trkpt lat="53.3288539648056" lon="6.456394910812378">
				<ele>4.20001220703125</ele>
				<time>2025-08-11T10:29:25Z</time>
			</trkpt>
			<trkpt lat="53.32881546020508" lon="6.456707119941711">
				<ele>-4.20001220703125</ele>
				<time>2025-08-11T10:29:32Z</time>
			</trkpt>
			<trkpt lat="53.328787088394165" lon="6.456925630569458">
				<ele>-3.399993896484375</ele>
				<time>2025-08-11T10:29:41Z</time>
			</trkpt>
			<trkpt lat="53.3208429813385" lon="6.467345952987671">
				<ele>-2.399993896484375</ele>
				<time>2025-08-11T10:29:46Z</time>
			</trkpt>
			<trkpt lat="53.32086777687073" lon="6.46738862991333">
				<ele>16.4000244140625</ele>
				<time>2025-08-11T10:39:21Z</time>
			</trkpt>
			<trkpt lat="53.32081842422485" lon="6.467841982841492">
				<ele>-7.600006103515625</ele>
				<time>2025-08-11T10:39:23Z</time>
			</trkpt>
			<trkpt lat="53.32074999809265" lon="6.468191385269165">
				<ele>-13.600006103515625</ele>
				<time>2025-08-11T10:39:30Z</time>
			</trkpt>
			<trkpt lat="53.320714712142944" lon="6.468490839004517">
				<ele>-7.399993896484375</ele>
				<time>2025-08-11T10:39:39Z</time>
			</trkpt>
			<trkpt lat="53.3192332983017" lon="6.484426021575928">
				<ele>-6.20001220703125</ele>
				<time>2025-08-11T10:39:46Z</time>
			</trkpt>
			<trkpt lat="53.31932985782623" lon="6.4834887981414795">
				<ele>-23.399993896484375</ele>
				<time>2025-08-11T10:49:22Z</time>
			</trkpt>
			<trkpt lat="53.319385051727295" lon="6.48372209072113">
				<ele>3.399993896484375</ele>
				<time>2025-08-11T10:49:25Z</time>
			</trkpt>
			<trkpt lat="53.319218158721924" lon="6.483657360076904">
				<ele>16.5999755859375</ele>
				<time>2025-08-11T10:49:30Z</time>
			</trkpt>
			<trkpt lat="53.31903386116028" lon="6.483543395996094">
				<ele>11.79998779296875</ele>
				<time>2025-08-11T10:49:38Z</time>
			</trkpt>
			<trkpt lat="53.308335065841675" lon="6.489314436912537">
				<ele>7.600006103515625</ele>
				<time>2025-08-11T10:49:46Z</time>
			</trkpt>
			<trkpt lat="53.30788171291351" lon="6.491946816444397">
				<ele>28.20001220703125</ele>
				<time>2025-08-11T10:59:23Z</time>
			</trkpt>
			<trkpt lat="53.30783498287201" lon="6.491948127746582">
				<ele>4.0</ele>
				<time>2025-08-11T10:59:29Z</time>
			</trkpt>
			<trkpt lat="53.30775570869446" lon="6.4920371770858765">
				<ele>-5.79998779296875</ele>
				<time>2025-08-11T10:59:38Z</time>
			</trkpt>
			<trkpt lat="53.302313685417175" lon="6.497940421104431">
				<ele>-4.20001220703125</ele>
				<time>2025-08-11T10:59:47Z</time>
			</trkpt>
			<trkpt lat="53.302485942840576" lon="6.497710943222046">
				<ele>68.4000244140625</ele>
				<time>2025-08-11T11:09:21Z</time>
			</trkpt>
			<trkpt lat="53.30238652229309" lon="6.497836709022522">
				<ele>7.0</ele>
				<time>2025-08-11T11:09:33Z</time>
			</trkpt>
			<trkpt lat="53.302295088768005" lon="6.497957229614258">
				<ele>0.20001220703125</ele>
				<time>2025-08-11T11:09:41Z</time>
			</trkpt>
			<trkpt lat="53.292611598968506" lon="6.50409209728241">
				<ele>-1.20001220703125</ele>
				<time>2025-08-11T11:09:46Z</time>
			</trkpt>
			<trkpt lat="53.29259479045868" lon="6.50410521030426">
				<ele>34.5999755859375</ele>
				<time>2025-08-11T11:19:25Z</time>
			</trkpt>
			<trkpt lat="53.29279577732086" lon="6.504209399223328">
				<ele>36.4000244140625</ele>
				<time>2025-08-11T11:19:26Z</time>
			</trkpt>
			<trkpt lat="53.29279100894928" lon="6.50399923324585">
				<ele>0.0</ele>
				<time>2025-08-11T11:19:27Z</time>
			</trkpt>
			<trkpt lat="53.292685985565186" lon="6.503911972045898">
				<ele>-4.600006103515625</ele>
				<time>2025-08-11T11:19:32Z</time>
			</trkpt>
			<trkpt lat="53.29256725311279" lon="6.503853440284729">
				<ele>-5.600006103515625</ele>
				<time>2025-08-11T11:19:40Z</time>
			</trkpt>
			<trkpt lat="53.28026366233826" lon="6.501932621002197">
				<ele>-5.20001220703125</ele>
				<time>2025-08-11T11:19:46Z</time>
			</trkpt>
			<trkpt lat="53.280233502388" lon="6.501884937286377">
				<ele>-23.399993896484375</ele>
				<time>2025-08-11T11:29:28Z</time>
			</trkpt>
			<trkpt lat="53.27998650074005" lon="6.501888275146484">
				<ele>-4.0</ele>
				<time>2025-08-11T11:29:31Z</time>
			</trkpt>
			<trkpt lat="53.2798947095871" lon="6.5018991231918335">
				<ele>-4.600006103515625</ele>
				<time>2025-08-11T11:29:43Z</time>
			</trkpt>
			<trkpt lat="53.26832723617554" lon="6.506584048271179">
				<ele>-4.20001220703125</ele>
				<time>2025-08-11T11:29:46Z</time>
			</trkpt>
			<trkpt lat="53.26828980445862" lon="6.506524085998535">
				<ele>-11.20001220703125</ele>
				<time>2025-08-11T11:39:23Z</time>
			</trkpt>
			<trkpt lat="53.26802957057953" lon="6.50651490688324">
				<ele>-11.0</ele>
				<time>2025-08-11T11:39:26Z</time>
			</trkpt>
			<trkpt lat="53.267791390419006" lon="6.506539344787598">
				<ele>-7.0</ele>
				<time>2025-08-11T11:39:37Z</time>
			</trkpt>
			<trkpt lat="53.259039640426636" lon="6.5075883865356445">
				<ele>-5.79998779296875</ele>
				<time>2025-08-11T11:39:46Z</time>
			</trkpt>
			<trkpt lat="53.2588495016098" lon="6.507892847061157">
				<ele>-18.600006103515625</ele>
				<time>2025-08-11T11:49:24Z</time>
			</trkpt>
			<trkpt lat="53.25879096984863" lon="6.507920145988464">
				<ele>-6.20001220703125</ele>
				<time>2025-08-11T11:49:35Z</time>
			</trkpt>
			<trkpt lat="53.25513434410095" lon="6.512396574020386">
				<ele>-5.600006103515625</ele>
				<time>2025-08-11T11:49:46Z</time>
			</trkpt>
			<trkpt lat="53.25505876541138" lon="6.511022210121155">
				<ele>2.399993896484375</ele>
				<time>2025-08-11T11:59:22Z</time>
			</trkpt>
			<trkpt lat="53.25598168373108" lon="6.5096577405929565">
				<ele>-4.79998779296875</ele>
				<time>2025-08-11T11:59:29Z</time>
			</trkpt>
			<trkpt lat="53.256033182144165" lon="6.509567022323608">
				<ele>4.79998779296875</ele>
				<time>2025-08-11T11:59:34Z</time>
			</trkpt>
			<trkpt lat="53.256033182144165" lon="6.509567022323608">
				<ele>-1.0</ele>
				<time>2025-08-11T11:59:46Z</time>
			</trkpt>
			<trkpt lat="53.25376737117767" lon="6.512670874595642">
				<ele>-1.0</ele>
				<time>2025-08-11T11:59:47Z</time>
			</trkpt>
			<trkpt lat="53.254048109054565" lon="6.511886239051819">
				<ele>-47.0</ele>
				<time>2025-08-11T12:09:21Z</time>
			</trkpt>
			<trkpt lat="53.254400849342346" lon="6.511294603347778">
				<ele>-50.79998779296875</ele>
				<time>2025-08-11T12:09:23Z</time>
			</trkpt>
			<trkpt lat="53.25423276424408" lon="6.511496424674988">
				<ele>-6.399993896484375</ele>
				<time>2025-08-11T12:09:32Z</time>
			</trkpt>
			<trkpt lat="53.254117250442505" lon="6.511642336845398">
				<ele>-5.600006103515625</ele>
				<time>2025-08-11T12:09:41Z</time>
			</trkpt>
			<trkpt lat="53.24379110336304" lon="6.52336847782135">
				<ele>-5.399993896484375</ele>
				<time>2025-08-11T12:09:46Z</time>
			</trkpt>
			<trkpt lat="53.24378478527069" lon="6.5233787298202515">
				<ele>-8.79998779296875</ele>
				<time>2025-08-11T12:19:26Z</time>
			</trkpt>
			<trkpt lat="53.24376881122589" lon="6.523418188095093">
				<ele>-7.600006103515625</ele>
				<time>2025-08-11T12:19:27Z</time>
			</trkpt>
			<trkpt lat="53.243756890296936" lon="6.523426413536072">
				<ele>-6.600006103515625</ele>
				<time>2025-08-11T12:19:38Z</time>
			</trkpt>
			<trkpt lat="53.23403227329254" lon="6.528700351715088">
				<ele>-6.20001220703125</ele>
				<time>2025-08-11T12:19:46Z</time>
			</trkpt>
			<trkpt lat="53.2341103553772" lon="6.528712630271912">
				<ele>-70.20001220703125</ele>
				<time>2025-08-11T12:29:22Z</time>
			</trkpt>
			<trkpt lat="53.23513424396515" lon="6.529513716697693">
				<ele>-70.39999389648438</ele>
				<time>2025-08-11T12:29:24Z</time>
			</trkpt>
			<trkpt lat="53.235105872154236" lon="6.529521703720093">
				<ele>4.600006103515625</ele>
				<time>2025-08-11T12:29:30Z</time>
			</trkpt>
			<trkpt lat="53.235193848609924" lon="6.5295058488845825">
				<ele>3.79998779296875</ele>
				<time>2025-08-11T12:29:35Z</time>
			</trkpt>
			<trkpt lat="53.23519968986511" lon="6.52950394153595">
				<ele>2.20001220703125</ele>
				<time>2025-08-11T12:29:45Z</time>
			</trkpt>
			<trkpt lat="53.226829528808594" lon="6.535841107368469">
				<ele>1.399993896484375</ele>
				<time>2025-08-11T12:29:46Z</time>
			</trkpt>
			<trkpt lat="53.22676336765289" lon="6.5358357429504395">
				<ele>-20.600006103515625</ele>
				<time>2025-08-11T12:39:26Z</time>
			</trkpt>
			<trkpt lat="53.22658336162567" lon="6.536007404327393">
				<ele>-7.600006103515625</ele>
				<time>2025-08-11T12:39:28Z</time>
			</trkpt>
			<trkpt lat="53.22631895542145" lon="6.536195635795593">
				<ele>-0.79998779296875</ele>
				<time>2025-08-11T12:39:36Z</time>
			</trkpt>
			<trkpt lat="53.21844136714935" lon="6.549496173858643">
				<ele>-2.79998779296875</ele>
				<time>2025-08-11T12:39:46Z</time>
			</trkpt>
			<trkpt lat="53.219154477119446" lon="6.54914402961731">
				<ele>-44.20001220703125</ele>
				<time>2025-08-11T12:49:26Z</time>
			</trkpt>
			<trkpt lat="53.21926498413086" lon="6.549392104148865">
				<ele>-20.79998779296875</ele>
				<time>2025-08-11T12:49:32Z</time>
			</trkpt>
			<trkpt lat="53.219351053237915" lon="6.549840927124023">
				<ele>-9.399993896484375</ele>
				<time>2025-08-11T12:49:37Z</time>
			</trkpt>
			<trkpt lat="53.219351053237915" lon="6.549840927124023">
				<ele>-3.600006103515625</ele>
				<time>2025-08-11T12:49:46Z</time>
			</trkpt>
			<trkpt lat="53.216044783592224" lon="6.560063719749451">
				<ele>-3.600006103515625</ele>
				<time>2025-08-11T12:49:47Z</time>
			</trkpt>
			<trkpt lat="53.21669626235962" lon="6.559921383857727">
				<ele>84.79998779296875</ele>
				<time>2025-08-11T12:59:29Z</time>
			</trkpt>
			<trkpt lat="53.216699957847595" lon="6.559669852256775">
				<ele>90.4000244140625</ele>
				<time>2025-08-11T12:59:32Z</time>
			</trkpt>
			<trkpt lat="53.21657192707062" lon="6.55958092212677">
				<ele>26.0</ele>
				<time>2025-08-11T12:59:40Z</time>
			</trkpt>
			<trkpt lat="53.21655452251434" lon="6.5595667362213135">
				<ele>18.20001220703125</ele>
				<time>2025-08-11T12:59:46Z</time>
			</trkpt>
			<trkpt lat="53.21154999732971" lon="6.562281847000122">
				<ele>17.4000244140625</ele>
				<time>2025-08-11T12:59:46Z</time>
			</trkpt>
			<trkpt lat="53.21259796619415" lon="6.561032772064209">
				<ele>-65.79998779296875</ele>
				<time>2025-08-11T13:09:25Z</time>
			</trkpt>
			<trkpt lat="53.21262192726135" lon="6.560985803604126">
				<ele>27.79998779296875</ele>
				<time>2025-08-11T13:09:33Z</time>
			</trkpt>
			<trkpt lat="53.21265184879303" lon="6.560913920402527">
				<ele>47.4000244140625</ele>
				<time>2025-08-11T13:09:41Z</time>
			</trkpt>
			<trkpt lat="53.213581562042236" lon="6.559423923492432">
				<ele>49.4000244140625</ele>
				<time>2025-08-11T13:09:47Z</time>
			</trkpt>
			<trkpt lat="53.21354138851166" lon="6.5593719482421875">
				<ele>72.0</ele>
				<time>2025-08-11T13:19:29Z</time>
			</trkpt>
			<trkpt lat="53.213600635528564" lon="6.558996558189392">
				<ele>75.4000244140625</ele>
				<time>2025-08-11T13:19:30Z</time>
			</trkpt>
			<trkpt lat="53.213605999946594" lon="6.558965802192688">
				<ele>45.79998779296875</ele>
				<time>2025-08-11T13:19:44Z</time>
			</trkpt>
		</trkseg>
	</trk>
</gpx>
