<?xml version="1.0" encoding="UTF-8"?>
<gpx version="1.1" creator="SailTies" xmlns="http://www.topografix.com/GPX/1/1" xmlns:xsi="http://www.w3.org/2001/XMLSchema-instance" xmlns:gpxtpx="http://www.garmin.com/xmlschemas/TrackPointExtension/v2" xsi:schemaLocation="http://www.topografix.com/GPX/1/1 http://www.topografix.com/GPX/1/1/gpx.xsd http://www.garmin.com/xmlschemas/TrackPointExtension/v2 http://www.garmin.com/xmlschemas/TrackPointExtensionv2.xsd">
  <metadata>
    <name>The last trip to a new owner</name>
    <desc>Distance: 43.2 NM • Duration: 8h 55m • Avg speed: 4.8 kn • Max speed: 7.2 kn • Vessel: Rassvet • Wellingdorf to Burg auf Fehmarn, Germany</desc>
    <author><name>SailTies</name><link href="https://sailties.com"><text>SailTies</text></link></author>
    <link href="https://sailties.com"><text>SailTies</text></link>
    <time>2026-08-21T18:39:09.000Z</time>
    <bounds minlat="54.32984638027847" minlon="10.166232576593757" maxlat="54.449812872335315" maxlon="11.199403563514352"/>
  </metadata>
  <trk>
    <name>The last trip to a new owner</name>
    <desc>Distance: 43.2 NM • Duration: 8h 55m • Avg speed: 4.8 kn • Max speed: 7.2 kn • Vessel: Rassvet • Wellingdorf to Burg auf Fehmarn, Germany</desc>
    <type>sailing</type>
    <trkseg>
      <trkpt lat="54.32992022484541" lon="10.175950471311808">
        <time>2026-08-21T18:39:09.000Z</time>
        <extensions>
          <gpxtpx:TrackPointExtension>
            <gpxtpx:speed>1.698</gpxtpx:speed>
          </gpxtpx:TrackPointExtension>
        </extensions>
      </trkpt>
      <trkpt lat="54.32984638027847" lon="10.17530363984406">
        <time>2026-08-21T18:39:33.000Z</time>
        <extensions>
          <gpxtpx:TrackPointExtension>
            <gpxtpx:speed>1.885</gpxtpx:speed>
          </gpxtpx:TrackPointExtension>
        </extensions>
      </trkpt>
      <trkpt lat="54.330369997769594" lon="10.173650477081537">
        <time>2026-08-21T18:40:48.000Z</time>
        <extensions>
          <gpxtpx:TrackPointExtension>
            <gpxtpx:speed>1.418</gpxtpx:speed>
          </gpxtpx:TrackPointExtension>
        </extensions>
      </trkpt>
      <trkpt lat="54.33312454260886" lon="10.167839219793677">
        <time>2026-08-21T18:44:42.000Z</time>
        <extensions>
          <gpxtpx:TrackPointExtension>
            <gpxtpx:speed>2.305</gpxtpx:speed>
          </gpxtpx:TrackPointExtension>
        </extensions>
      </trkpt>
      <trkpt lat="54.333655619993806" lon="10.167007986456156">
        <time>2026-08-21T18:45:17.000Z</time>
        <extensions>
          <gpxtpx:TrackPointExtension>
            <gpxtpx:speed>2.314</gpxtpx:speed>
          </gpxtpx:TrackPointExtension>
        </extensions>
      </trkpt>
      <trkpt lat="54.334363639354706" lon="10.166667429730296">
        <time>2026-08-21T18:45:52.000Z</time>
        <extensions>
          <gpxtpx:TrackPointExtension>
            <gpxtpx:speed>2.379</gpxtpx:speed>
          </gpxtpx:TrackPointExtension>
        </extensions>
      </trkpt>
      <trkpt lat="54.335373993963" lon="10.166410859674215">
        <time>2026-08-21T18:46:41.000Z</time>
        <extensions>
          <gpxtpx:TrackPointExtension>
            <gpxtpx:speed>2.407</gpxtpx:speed>
          </gpxtpx:TrackPointExtension>
        </extensions>
      </trkpt>
      <trkpt lat="54.34001882560551" lon="10.166232576593757">
        <time>2026-08-21T18:50:14.000Z</time>
        <extensions>
          <gpxtpx:TrackPointExtension>
            <gpxtpx:speed>2.445</gpxtpx:speed>
          </gpxtpx:TrackPointExtension>
        </extensions>
      </trkpt>
      <trkpt lat="54.345892276614904" lon="10.16779881902039">
        <time>2026-08-21T18:54:53.000Z</time>
        <extensions>
          <gpxtpx:TrackPointExtension>
            <gpxtpx:speed>2.342</gpxtpx:speed>
          </gpxtpx:TrackPointExtension>
        </extensions>
      </trkpt>
      <trkpt lat="54.34783721342683" lon="10.167865790426731">
        <time>2026-08-21T18:56:25.000Z</time>
        <extensions>
          <gpxtpx:TrackPointExtension>
            <gpxtpx:speed>2.351</gpxtpx:speed>
          </gpxtpx:TrackPointExtension>
        </extensions>
      </trkpt>
      <trkpt lat="54.348666183650494" lon="10.168153624981642">
        <time>2026-08-21T18:57:05.000Z</time>
        <extensions>
          <gpxtpx:TrackPointExtension>
            <gpxtpx:speed>2.314</gpxtpx:speed>
          </gpxtpx:TrackPointExtension>
        </extensions>
      </trkpt>
      <trkpt lat="54.35988142155111" lon="10.176176866516471">
        <time>2026-08-21T19:06:23.000Z</time>
        <extensions>
          <gpxtpx:TrackPointExtension>
            <gpxtpx:speed>2.613</gpxtpx:speed>
          </gpxtpx:TrackPointExtension>
        </extensions>
      </trkpt>
      <trkpt lat="54.362435806542635" lon="10.176356239244342">
        <time>2026-08-21T19:08:25.000Z</time>
        <extensions>
          <gpxtpx:TrackPointExtension>
            <gpxtpx:speed>2.277</gpxtpx:speed>
          </gpxtpx:TrackPointExtension>
        </extensions>
      </trkpt>
      <trkpt lat="54.36751674860716" lon="10.179962553083897">
        <time>2026-08-21T19:12:35.000Z</time>
        <extensions>
          <gpxtpx:TrackPointExtension>
            <gpxtpx:speed>2.473</gpxtpx:speed>
          </gpxtpx:TrackPointExtension>
        </extensions>
      </trkpt>
      <trkpt lat="54.373276541009545" lon="10.183008285239339">
        <time>2026-08-21T19:17:07.000Z</time>
        <extensions>
          <gpxtpx:TrackPointExtension>
            <gpxtpx:speed>2.501</gpxtpx:speed>
          </gpxtpx:TrackPointExtension>
        </extensions>
      </trkpt>
      <trkpt lat="54.38170370645821" lon="10.191430589184165">
        <time>2026-08-21T19:24:42.000Z</time>
        <extensions>
          <gpxtpx:TrackPointExtension>
            <gpxtpx:speed>2.398</gpxtpx:speed>
          </gpxtpx:TrackPointExtension>
        </extensions>
      </trkpt>
      <trkpt lat="54.38344496302307" lon="10.193372089415789">
        <time>2026-08-21T19:26:17.000Z</time>
        <extensions>
          <gpxtpx:TrackPointExtension>
            <gpxtpx:speed>2.37</gpxtpx:speed>
          </gpxtpx:TrackPointExtension>
        </extensions>
      </trkpt>
      <trkpt lat="54.38710777089" lon="10.195981208235025">
        <time>2026-08-21T19:29:20.000Z</time>
        <extensions>
          <gpxtpx:TrackPointExtension>
            <gpxtpx:speed>2.361</gpxtpx:speed>
          </gpxtpx:TrackPointExtension>
        </extensions>
      </trkpt>
      <trkpt lat="54.392243614420295" lon="10.200233263894916">
        <time>2026-08-21T19:33:42.000Z</time>
        <extensions>
          <gpxtpx:TrackPointExtension>
            <gpxtpx:speed>2.482</gpxtpx:speed>
          </gpxtpx:TrackPointExtension>
        </extensions>
      </trkpt>
      <trkpt lat="54.397998629137874" lon="10.20415079779923">
        <time>2026-08-21T19:38:07.000Z</time>
        <extensions>
          <gpxtpx:TrackPointExtension>
            <gpxtpx:speed>2.613</gpxtpx:speed>
          </gpxtpx:TrackPointExtension>
        </extensions>
      </trkpt>
      <trkpt lat="54.40779162570834" lon="10.211732145398855">
        <time>2026-08-21T19:45:56.000Z</time>
        <extensions>
          <gpxtpx:TrackPointExtension>
            <gpxtpx:speed>2.501</gpxtpx:speed>
          </gpxtpx:TrackPointExtension>
        </extensions>
      </trkpt>
      <trkpt lat="54.40924907103181" lon="10.21243941038847">
        <time>2026-08-21T19:47:04.000Z</time>
        <extensions>
          <gpxtpx:TrackPointExtension>
            <gpxtpx:speed>2.463</gpxtpx:speed>
          </gpxtpx:TrackPointExtension>
        </extensions>
      </trkpt>
      <trkpt lat="54.4128208514303" lon="10.213483041152358">
        <time>2026-08-21T19:49:46.000Z</time>
        <extensions>
          <gpxtpx:TrackPointExtension>
            <gpxtpx:speed>2.426</gpxtpx:speed>
          </gpxtpx:TrackPointExtension>
        </extensions>
      </trkpt>
      <trkpt lat="54.41346248611808" lon="10.213805325329304">
        <time>2026-08-21T19:50:16.000Z</time>
        <extensions>
          <gpxtpx:TrackPointExtension>
            <gpxtpx:speed>2.585</gpxtpx:speed>
          </gpxtpx:TrackPointExtension>
        </extensions>
      </trkpt>
      <trkpt lat="54.42427011206746" lon="10.22432679310441">
        <time>2026-08-21T19:59:21.000Z</time>
        <extensions>
          <gpxtpx:TrackPointExtension>
            <gpxtpx:speed>2.351</gpxtpx:speed>
          </gpxtpx:TrackPointExtension>
        </extensions>
      </trkpt>
      <trkpt lat="54.42881788127124" lon="10.228436775505543">
        <time>2026-08-21T20:03:14.000Z</time>
        <extensions>
          <gpxtpx:TrackPointExtension>
            <gpxtpx:speed>2.379</gpxtpx:speed>
          </gpxtpx:TrackPointExtension>
        </extensions>
      </trkpt>
      <trkpt lat="54.42954073660076" lon="10.229863375425339">
        <time>2026-08-21T20:04:03.000Z</time>
        <extensions>
          <gpxtpx:TrackPointExtension>
            <gpxtpx:speed>2.557</gpxtpx:speed>
          </gpxtpx:TrackPointExtension>
        </extensions>
      </trkpt>
      <trkpt lat="54.43277179263532" lon="10.24054929614067">
        <time>2026-08-21T20:09:19.000Z</time>
        <extensions>
          <gpxtpx:TrackPointExtension>
            <gpxtpx:speed>2.043</gpxtpx:speed>
          </gpxtpx:TrackPointExtension>
        </extensions>
      </trkpt>
      <trkpt lat="54.43549130111933" lon="10.250676646828651">
        <time>2026-08-21T20:15:09.000Z</time>
        <extensions>
          <gpxtpx:TrackPointExtension>
            <gpxtpx:speed>1.987</gpxtpx:speed>
          </gpxtpx:TrackPointExtension>
        </extensions>
      </trkpt>
      <trkpt lat="54.43850903771818" lon="10.269074589014053">
        <time>2026-08-21T20:24:33.000Z</time>
        <extensions>
          <gpxtpx:TrackPointExtension>
            <gpxtpx:speed>2.594</gpxtpx:speed>
          </gpxtpx:TrackPointExtension>
        </extensions>
      </trkpt>
      <trkpt lat="54.439878640696406" lon="10.279735447838902">
        <time>2026-08-21T20:29:14.000Z</time>
        <extensions>
          <gpxtpx:TrackPointExtension>
            <gpxtpx:speed>2.566</gpxtpx:speed>
          </gpxtpx:TrackPointExtension>
        </extensions>
      </trkpt>
      <trkpt lat="54.44535294547677" lon="10.311273615807295">
        <time>2026-08-21T20:42:02.000Z</time>
        <extensions>
          <gpxtpx:TrackPointExtension>
            <gpxtpx:speed>2.678</gpxtpx:speed>
          </gpxtpx:TrackPointExtension>
        </extensions>
      </trkpt>
      <trkpt lat="54.44806172512472" lon="10.328879887238145">
        <time>2026-08-21T20:49:04.000Z</time>
        <extensions>
          <gpxtpx:TrackPointExtension>
            <gpxtpx:speed>2.799</gpxtpx:speed>
          </gpxtpx:TrackPointExtension>
        </extensions>
      </trkpt>
      <trkpt lat="54.44851040840149" lon="10.33298366703093">
        <time>2026-08-21T20:50:51.000Z</time>
        <extensions>
          <gpxtpx:TrackPointExtension>
            <gpxtpx:speed>2.809</gpxtpx:speed>
          </gpxtpx:TrackPointExtension>
        </extensions>
      </trkpt>
      <trkpt lat="54.44959435611963" lon="10.340034021064639">
        <time>2026-08-21T20:53:50.000Z</time>
        <extensions>
          <gpxtpx:TrackPointExtension>
            <gpxtpx:speed>2.557</gpxtpx:speed>
          </gpxtpx:TrackPointExtension>
        </extensions>
      </trkpt>
      <trkpt lat="54.449812872335315" lon="10.344235450029373">
        <time>2026-08-21T20:55:36.000Z</time>
        <extensions>
          <gpxtpx:TrackPointExtension>
            <gpxtpx:speed>2.146</gpxtpx:speed>
          </gpxtpx:TrackPointExtension>
        </extensions>
      </trkpt>
      <trkpt lat="54.449563259258866" lon="10.351056810468435">
        <time>2026-08-21T20:58:31.000Z</time>
        <extensions>
          <gpxtpx:TrackPointExtension>
            <gpxtpx:speed>3.107</gpxtpx:speed>
          </gpxtpx:TrackPointExtension>
        </extensions>
      </trkpt>
      <trkpt lat="54.44961128756404" lon="10.363204535096884">
        <time>2026-08-21T21:03:39.000Z</time>
        <extensions>
          <gpxtpx:TrackPointExtension>
            <gpxtpx:speed>2.239</gpxtpx:speed>
          </gpxtpx:TrackPointExtension>
        </extensions>
      </trkpt>
      <trkpt lat="54.44892321713269" lon="10.368270557373762">
        <time>2026-08-21T21:05:51.000Z</time>
        <extensions>
          <gpxtpx:TrackPointExtension>
            <gpxtpx:speed>2.874</gpxtpx:speed>
          </gpxtpx:TrackPointExtension>
        </extensions>
      </trkpt>
      <trkpt lat="54.44794228300452" lon="10.378089705482125">
        <time>2026-08-21T21:10:15.000Z</time>
        <extensions>
          <gpxtpx:TrackPointExtension>
            <gpxtpx:speed>2.389</gpxtpx:speed>
          </gpxtpx:TrackPointExtension>
        </extensions>
      </trkpt>
      <trkpt lat="54.4464046228677" lon="10.398497292771935">
        <time>2026-08-21T21:19:42.000Z</time>
        <extensions>
          <gpxtpx:TrackPointExtension>
            <gpxtpx:speed>2.631</gpxtpx:speed>
          </gpxtpx:TrackPointExtension>
        </extensions>
      </trkpt>
      <trkpt lat="54.44561010226607" lon="10.40645632892847">
        <time>2026-08-21T21:23:23.000Z</time>
        <extensions>
          <gpxtpx:TrackPointExtension>
            <gpxtpx:speed>2.51</gpxtpx:speed>
          </gpxtpx:TrackPointExtension>
        </extensions>
      </trkpt>
      <trkpt lat="54.444530764594674" lon="10.420413203537464">
        <time>2026-08-21T21:29:54.000Z</time>
        <extensions>
          <gpxtpx:TrackPointExtension>
            <gpxtpx:speed>2.193</gpxtpx:speed>
          </gpxtpx:TrackPointExtension>
        </extensions>
      </trkpt>
      <trkpt lat="54.44366851821542" lon="10.439185062423348">
        <time>2026-08-21T21:38:19.000Z</time>
        <extensions>
          <gpxtpx:TrackPointExtension>
            <gpxtpx:speed>2.37</gpxtpx:speed>
          </gpxtpx:TrackPointExtension>
        </extensions>
      </trkpt>
      <trkpt lat="54.44343265146017" lon="10.449570575729012">
        <time>2026-08-21T21:42:47.000Z</time>
        <extensions>
          <gpxtpx:TrackPointExtension>
            <gpxtpx:speed>2.659</gpxtpx:speed>
          </gpxtpx:TrackPointExtension>
        </extensions>
      </trkpt>
      <trkpt lat="54.44153976626694" lon="10.477021057158709">
        <time>2026-08-21T21:54:43.000Z</time>
        <extensions>
          <gpxtpx:TrackPointExtension>
            <gpxtpx:speed>2.314</gpxtpx:speed>
          </gpxtpx:TrackPointExtension>
        </extensions>
      </trkpt>
      <trkpt lat="54.44079796783626" lon="10.483277225866914">
        <time>2026-08-21T21:57:39.000Z</time>
        <extensions>
          <gpxtpx:TrackPointExtension>
            <gpxtpx:speed>2.519</gpxtpx:speed>
          </gpxtpx:TrackPointExtension>
        </extensions>
      </trkpt>
      <trkpt lat="54.438639963045716" lon="10.511421980336308">
        <time>2026-08-21T22:10:06.000Z</time>
        <extensions>
          <gpxtpx:TrackPointExtension>
            <gpxtpx:speed>2.641</gpxtpx:speed>
          </gpxtpx:TrackPointExtension>
        </extensions>
      </trkpt>
      <trkpt lat="54.436491429805756" lon="10.532473549246788">
        <time>2026-08-21T22:19:29.000Z</time>
        <extensions>
          <gpxtpx:TrackPointExtension>
            <gpxtpx:speed>2.65</gpxtpx:speed>
          </gpxtpx:TrackPointExtension>
        </extensions>
      </trkpt>
      <trkpt lat="54.43510095588863" lon="10.550663201138377">
        <time>2026-08-21T22:27:23.000Z</time>
        <extensions>
          <gpxtpx:TrackPointExtension>
            <gpxtpx:speed>2.948</gpxtpx:speed>
          </gpxtpx:TrackPointExtension>
        </extensions>
      </trkpt>
      <trkpt lat="54.43278285674751" lon="10.575568182393909">
        <time>2026-08-21T22:37:59.000Z</time>
        <extensions>
          <gpxtpx:TrackPointExtension>
            <gpxtpx:speed>2.837</gpxtpx:speed>
          </gpxtpx:TrackPointExtension>
        </extensions>
      </trkpt>
      <trkpt lat="54.43220970220864" lon="10.583531828597188">
        <time>2026-08-21T22:41:15.000Z</time>
        <extensions>
          <gpxtpx:TrackPointExtension>
            <gpxtpx:speed>2.575</gpxtpx:speed>
          </gpxtpx:TrackPointExtension>
        </extensions>
      </trkpt>
      <trkpt lat="54.43053625524044" lon="10.598293785005808">
        <time>2026-08-21T22:47:31.000Z</time>
        <extensions>
          <gpxtpx:TrackPointExtension>
            <gpxtpx:speed>2.837</gpxtpx:speed>
          </gpxtpx:TrackPointExtension>
        </extensions>
      </trkpt>
      <trkpt lat="54.42960376851261" lon="10.60986852273345">
        <time>2026-08-21T22:52:11.000Z</time>
        <extensions>
          <gpxtpx:TrackPointExtension>
            <gpxtpx:speed>3.098</gpxtpx:speed>
          </gpxtpx:TrackPointExtension>
        </extensions>
      </trkpt>
      <trkpt lat="54.42727996967733" lon="10.630026496946812">
        <time>2026-08-21T23:00:24.000Z</time>
        <extensions>
          <gpxtpx:TrackPointExtension>
            <gpxtpx:speed>2.566</gpxtpx:speed>
          </gpxtpx:TrackPointExtension>
        </extensions>
      </trkpt>
      <trkpt lat="54.42426944151521" lon="10.664767306298018">
        <time>2026-08-21T23:13:33.000Z</time>
        <extensions>
          <gpxtpx:TrackPointExtension>
            <gpxtpx:speed>3.182</gpxtpx:speed>
          </gpxtpx:TrackPointExtension>
        </extensions>
      </trkpt>
      <trkpt lat="54.42413415759802" lon="10.679047387093306">
        <time>2026-08-21T23:19:05.000Z</time>
        <extensions>
          <gpxtpx:TrackPointExtension>
            <gpxtpx:speed>2.865</gpxtpx:speed>
          </gpxtpx:TrackPointExtension>
        </extensions>
      </trkpt>
      <trkpt lat="54.42375118844211" lon="10.686271078884602">
        <time>2026-08-21T23:22:05.000Z</time>
        <extensions>
          <gpxtpx:TrackPointExtension>
            <gpxtpx:speed>3.238</gpxtpx:speed>
          </gpxtpx:TrackPointExtension>
        </extensions>
      </trkpt>
      <trkpt lat="54.423893596976995" lon="10.688950270414352">
        <time>2026-08-21T23:23:13.000Z</time>
        <extensions>
          <gpxtpx:TrackPointExtension>
            <gpxtpx:speed>2.51</gpxtpx:speed>
          </gpxtpx:TrackPointExtension>
        </extensions>
      </trkpt>
      <trkpt lat="54.423350701108575" lon="10.703712981194258">
        <time>2026-08-21T23:28:55.000Z</time>
        <extensions>
          <gpxtpx:TrackPointExtension>
            <gpxtpx:speed>2.445</gpxtpx:speed>
          </gpxtpx:TrackPointExtension>
        </extensions>
      </trkpt>
      <trkpt lat="54.42419685423374" lon="10.722867893055081">
        <time>2026-08-21T23:35:55.000Z</time>
        <extensions>
          <gpxtpx:TrackPointExtension>
            <gpxtpx:speed>2.762</gpxtpx:speed>
          </gpxtpx:TrackPointExtension>
        </extensions>
      </trkpt>
      <trkpt lat="54.424372371286154" lon="10.738876992836595">
        <time>2026-08-21T23:41:53.000Z</time>
        <extensions>
          <gpxtpx:TrackPointExtension>
            <gpxtpx:speed>2.967</gpxtpx:speed>
          </gpxtpx:TrackPointExtension>
        </extensions>
      </trkpt>
      <trkpt lat="54.42426189780235" lon="10.75252658687532">
        <time>2026-08-21T23:47:13.000Z</time>
        <extensions>
          <gpxtpx:TrackPointExtension>
            <gpxtpx:speed>2.958</gpxtpx:speed>
          </gpxtpx:TrackPointExtension>
        </extensions>
      </trkpt>
      <trkpt lat="54.42384649068117" lon="10.773803042247891">
        <time>2026-08-21T23:55:25.000Z</time>
        <extensions>
          <gpxtpx:TrackPointExtension>
            <gpxtpx:speed>2.93</gpxtpx:speed>
          </gpxtpx:TrackPointExtension>
        </extensions>
      </trkpt>
      <trkpt lat="54.42357977852225" lon="10.783490343019366">
        <time>2026-08-21T23:59:06.000Z</time>
        <extensions>
          <gpxtpx:TrackPointExtension>
            <gpxtpx:speed>2.519</gpxtpx:speed>
          </gpxtpx:TrackPointExtension>
        </extensions>
      </trkpt>
      <trkpt lat="54.42331440746784" lon="10.78784130513668">
        <time>2026-08-22T00:00:52.000Z</time>
        <extensions>
          <gpxtpx:TrackPointExtension>
            <gpxtpx:speed>2.883</gpxtpx:speed>
          </gpxtpx:TrackPointExtension>
        </extensions>
      </trkpt>
      <trkpt lat="54.42333402112126" lon="10.792344734072685">
        <time>2026-08-22T00:02:32.000Z</time>
        <extensions>
          <gpxtpx:TrackPointExtension>
            <gpxtpx:speed>2.809</gpxtpx:speed>
          </gpxtpx:TrackPointExtension>
        </extensions>
      </trkpt>
      <trkpt lat="54.42273035645485" lon="10.805139793083072">
        <time>2026-08-22T00:07:37.000Z</time>
        <extensions>
          <gpxtpx:TrackPointExtension>
            <gpxtpx:speed>3.256</gpxtpx:speed>
          </gpxtpx:TrackPointExtension>
        </extensions>
      </trkpt>
      <trkpt lat="54.42271711304784" lon="10.808488866314292">
        <time>2026-08-22T00:08:56.000Z</time>
        <extensions>
          <gpxtpx:TrackPointExtension>
            <gpxtpx:speed>2.743</gpxtpx:speed>
          </gpxtpx:TrackPointExtension>
        </extensions>
      </trkpt>
      <trkpt lat="54.42240044474602" lon="10.813259091228247">
        <time>2026-08-22T00:10:53.000Z</time>
        <extensions>
          <gpxtpx:TrackPointExtension>
            <gpxtpx:speed>2.883</gpxtpx:speed>
          </gpxtpx:TrackPointExtension>
        </extensions>
      </trkpt>
      <trkpt lat="54.422090062871575" lon="10.827719382941723">
        <time>2026-08-22T00:16:42.000Z</time>
        <extensions>
          <gpxtpx:TrackPointExtension>
            <gpxtpx:speed>2.585</gpxtpx:speed>
          </gpxtpx:TrackPointExtension>
        </extensions>
      </trkpt>
      <trkpt lat="54.42201253026724" lon="10.842799348756671">
        <time>2026-08-22T00:22:45.000Z</time>
        <extensions>
          <gpxtpx:TrackPointExtension>
            <gpxtpx:speed>2.575</gpxtpx:speed>
          </gpxtpx:TrackPointExtension>
        </extensions>
      </trkpt>
      <trkpt lat="54.42226331681013" lon="10.856122467666864">
        <time>2026-08-22T00:28:18.000Z</time>
        <extensions>
          <gpxtpx:TrackPointExtension>
            <gpxtpx:speed>2.426</gpxtpx:speed>
          </gpxtpx:TrackPointExtension>
        </extensions>
      </trkpt>
      <trkpt lat="54.42132999189198" lon="10.878865169361234">
        <time>2026-08-22T00:37:27.000Z</time>
        <extensions>
          <gpxtpx:TrackPointExtension>
            <gpxtpx:speed>2.79</gpxtpx:speed>
          </gpxtpx:TrackPointExtension>
        </extensions>
      </trkpt>
      <trkpt lat="54.420633958652616" lon="10.8898601308465">
        <time>2026-08-22T00:42:04.000Z</time>
        <extensions>
          <gpxtpx:TrackPointExtension>
            <gpxtpx:speed>2.445</gpxtpx:speed>
          </gpxtpx:TrackPointExtension>
        </extensions>
      </trkpt>
      <trkpt lat="54.419595105573535" lon="10.901979189366102">
        <time>2026-08-22T00:47:12.000Z</time>
        <extensions>
          <gpxtpx:TrackPointExtension>
            <gpxtpx:speed>2.939</gpxtpx:speed>
          </gpxtpx:TrackPointExtension>
        </extensions>
      </trkpt>
      <trkpt lat="54.41901423968375" lon="10.912875244393945">
        <time>2026-08-22T00:51:40.000Z</time>
        <extensions>
          <gpxtpx:TrackPointExtension>
            <gpxtpx:speed>2.641</gpxtpx:speed>
          </gpxtpx:TrackPointExtension>
        </extensions>
      </trkpt>
      <trkpt lat="54.417707584798336" lon="10.928566670045257">
        <time>2026-08-22T00:58:38.000Z</time>
        <extensions>
          <gpxtpx:TrackPointExtension>
            <gpxtpx:speed>2.501</gpxtpx:speed>
          </gpxtpx:TrackPointExtension>
        </extensions>
      </trkpt>
      <trkpt lat="54.41717525012791" lon="10.949361836537719">
        <time>2026-08-22T01:07:03.000Z</time>
        <extensions>
          <gpxtpx:TrackPointExtension>
            <gpxtpx:speed>2.762</gpxtpx:speed>
          </gpxtpx:TrackPointExtension>
        </extensions>
      </trkpt>
      <trkpt lat="54.412893103435636" lon="10.997836897149682">
        <time>2026-08-22T01:26:38.000Z</time>
        <extensions>
          <gpxtpx:TrackPointExtension>
            <gpxtpx:speed>2.566</gpxtpx:speed>
          </gpxtpx:TrackPointExtension>
        </extensions>
      </trkpt>
      <trkpt lat="54.4116376619786" lon="11.01890011690557">
        <time>2026-08-22T01:34:50.000Z</time>
        <extensions>
          <gpxtpx:TrackPointExtension>
            <gpxtpx:speed>2.501</gpxtpx:speed>
          </gpxtpx:TrackPointExtension>
        </extensions>
      </trkpt>
      <trkpt lat="54.409733545035124" lon="11.035602986812592">
        <time>2026-08-22T01:41:56.000Z</time>
        <extensions>
          <gpxtpx:TrackPointExtension>
            <gpxtpx:speed>2.855</gpxtpx:speed>
          </gpxtpx:TrackPointExtension>
        </extensions>
      </trkpt>
      <trkpt lat="54.40878588706255" lon="11.047126008197665">
        <time>2026-08-22T01:46:54.000Z</time>
        <extensions>
          <gpxtpx:TrackPointExtension>
            <gpxtpx:speed>2.034</gpxtpx:speed>
          </gpxtpx:TrackPointExtension>
        </extensions>
      </trkpt>
      <trkpt lat="54.40583746880293" lon="11.075787842273712">
        <time>2026-08-22T02:00:12.000Z</time>
        <extensions>
          <gpxtpx:TrackPointExtension>
            <gpxtpx:speed>2.389</gpxtpx:speed>
          </gpxtpx:TrackPointExtension>
        </extensions>
      </trkpt>
      <trkpt lat="54.40492518246174" lon="11.088983556255698">
        <time>2026-08-22T02:05:45.000Z</time>
        <extensions>
          <gpxtpx:TrackPointExtension>
            <gpxtpx:speed>2.519</gpxtpx:speed>
          </gpxtpx:TrackPointExtension>
        </extensions>
      </trkpt>
      <trkpt lat="54.40193401649594" lon="11.11397311091423">
        <time>2026-08-22T02:18:36.000Z</time>
        <extensions>
          <gpxtpx:TrackPointExtension>
            <gpxtpx:speed>1.913</gpxtpx:speed>
          </gpxtpx:TrackPointExtension>
        </extensions>
      </trkpt>
      <trkpt lat="54.400606574490666" lon="11.118009500205517">
        <time>2026-08-22T02:21:59.000Z</time>
        <extensions>
          <gpxtpx:TrackPointExtension>
            <gpxtpx:speed>1.549</gpxtpx:speed>
          </gpxtpx:TrackPointExtension>
        </extensions>
      </trkpt>
      <trkpt lat="54.399100514128804" lon="11.12178965471685">
        <time>2026-08-22T02:25:05.000Z</time>
        <extensions>
          <gpxtpx:TrackPointExtension>
            <gpxtpx:speed>1.512</gpxtpx:speed>
          </gpxtpx:TrackPointExtension>
        </extensions>
      </trkpt>
      <trkpt lat="54.393607936799526" lon="11.134395282715559">
        <time>2026-08-22T02:35:57.000Z</time>
        <extensions>
          <gpxtpx:TrackPointExtension>
            <gpxtpx:speed>2.426</gpxtpx:speed>
          </gpxtpx:TrackPointExtension>
        </extensions>
      </trkpt>
      <trkpt lat="54.38496912829578" lon="11.156441615894437">
        <time>2026-08-22T02:47:23.000Z</time>
        <extensions>
          <gpxtpx:TrackPointExtension>
            <gpxtpx:speed>2.473</gpxtpx:speed>
          </gpxtpx:TrackPointExtension>
        </extensions>
      </trkpt>
      <trkpt lat="54.38173212110996" lon="11.164052467793226">
        <time>2026-08-22T02:51:23.000Z</time>
        <extensions>
          <gpxtpx:TrackPointExtension>
            <gpxtpx:speed>2.622</gpxtpx:speed>
          </gpxtpx:TrackPointExtension>
        </extensions>
      </trkpt>
      <trkpt lat="54.38146037980914" lon="11.165124597027898">
        <time>2026-08-22T02:51:53.000Z</time>
        <extensions>
          <gpxtpx:TrackPointExtension>
            <gpxtpx:speed>2.51</gpxtpx:speed>
          </gpxtpx:TrackPointExtension>
        </extensions>
      </trkpt>
      <trkpt lat="54.381677554920316" lon="11.16793186403811">
        <time>2026-08-22T02:53:09.000Z</time>
        <extensions>
          <gpxtpx:TrackPointExtension>
            <gpxtpx:speed>2.519</gpxtpx:speed>
          </gpxtpx:TrackPointExtension>
        </extensions>
      </trkpt>
      <trkpt lat="54.38304112292826" lon="11.17668223567307">
        <time>2026-08-22T02:57:05.000Z</time>
        <extensions>
          <gpxtpx:TrackPointExtension>
            <gpxtpx:speed>2.538</gpxtpx:speed>
          </gpxtpx:TrackPointExtension>
        </extensions>
      </trkpt>
      <trkpt lat="54.38419120386243" lon="11.183137306943536">
        <time>2026-08-22T03:00:01.000Z</time>
        <extensions>
          <gpxtpx:TrackPointExtension>
            <gpxtpx:speed>2.491</gpxtpx:speed>
          </gpxtpx:TrackPointExtension>
        </extensions>
      </trkpt>
      <trkpt lat="54.385189069435" lon="11.186618311330676">
        <time>2026-08-22T03:01:43.000Z</time>
        <extensions>
          <gpxtpx:TrackPointExtension>
            <gpxtpx:speed>2.435</gpxtpx:speed>
          </gpxtpx:TrackPointExtension>
        </extensions>
      </trkpt>
      <trkpt lat="54.38582735136151" lon="11.187786748632789">
        <time>2026-08-22T03:02:27.000Z</time>
        <extensions>
          <gpxtpx:TrackPointExtension>
            <gpxtpx:speed>2.286</gpxtpx:speed>
          </gpxtpx:TrackPointExtension>
        </extensions>
      </trkpt>
      <trkpt lat="54.386804262176156" lon="11.188926352187991">
        <time>2026-08-22T03:03:22.000Z</time>
        <extensions>
          <gpxtpx:TrackPointExtension>
            <gpxtpx:speed>2.37</gpxtpx:speed>
          </gpxtpx:TrackPointExtension>
        </extensions>
      </trkpt>
      <trkpt lat="54.394011944532394" lon="11.195451663807034">
        <time>2026-08-22T03:09:39.000Z</time>
        <extensions>
          <gpxtpx:TrackPointExtension>
            <gpxtpx:speed>2.249</gpxtpx:speed>
          </gpxtpx:TrackPointExtension>
        </extensions>
      </trkpt>
      <trkpt lat="54.39910755492747" lon="11.19841743260622">
        <time>2026-08-22T03:13:52.000Z</time>
        <extensions>
          <gpxtpx:TrackPointExtension>
            <gpxtpx:speed>2.305</gpxtpx:speed>
          </gpxtpx:TrackPointExtension>
        </extensions>
      </trkpt>
      <trkpt lat="54.40172069706023" lon="11.199034173041582">
        <time>2026-08-22T03:15:58.000Z</time>
        <extensions>
          <gpxtpx:TrackPointExtension>
            <gpxtpx:speed>2.323</gpxtpx:speed>
          </gpxtpx:TrackPointExtension>
        </extensions>
      </trkpt>
      <trkpt lat="54.40444112755358" lon="11.199403563514352">
        <time>2026-08-22T03:18:09.000Z</time>
        <extensions>
          <gpxtpx:TrackPointExtension>
            <gpxtpx:speed>2.258</gpxtpx:speed>
          </gpxtpx:TrackPointExtension>
        </extensions>
      </trkpt>
      <trkpt lat="54.408506099134684" lon="11.193022169172764">
        <time>2026-08-22T03:22:39.000Z</time>
        <extensions>
          <gpxtpx:TrackPointExtension>
            <gpxtpx:speed>2.305</gpxtpx:speed>
          </gpxtpx:TrackPointExtension>
        </extensions>
      </trkpt>
      <trkpt lat="54.40930564887822" lon="11.191962696611881">
        <time>2026-08-22T03:23:28.000Z</time>
        <extensions>
          <gpxtpx:TrackPointExtension>
            <gpxtpx:speed>2.305</gpxtpx:speed>
          </gpxtpx:TrackPointExtension>
        </extensions>
      </trkpt>
      <trkpt lat="54.41009161993861" lon="11.191400103271008">
        <time>2026-08-22T03:24:09.000Z</time>
        <extensions>
          <gpxtpx:TrackPointExtension>
            <gpxtpx:speed>2.333</gpxtpx:speed>
          </gpxtpx:TrackPointExtension>
        </extensions>
      </trkpt>
      <trkpt lat="54.41915329545736" lon="11.190339541062713">
        <time>2026-08-22T03:32:09.000Z</time>
        <extensions>
          <gpxtpx:TrackPointExtension>
            <gpxtpx:speed>1.008</gpxtpx:speed>
          </gpxtpx:TrackPointExtension>
        </extensions>
      </trkpt>
      <trkpt lat="54.419571217149496" lon="11.18997048586607">
        <time>2026-08-22T03:33:21.000Z</time>
        <extensions>
          <gpxtpx:TrackPointExtension>
            <gpxtpx:speed>1.073</gpxtpx:speed>
          </gpxtpx:TrackPointExtension>
        </extensions>
      </trkpt>
      <trkpt lat="54.420044124126434" lon="11.189122656360269">
        <time>2026-08-22T03:34:49.000Z</time>
      </trkpt>
    </trkseg>
  </trk>
</gpx>
